{"type":"FeatureCollection","attribution":"© OpenStreetMap contributors","license":"ODbL-1.0","source_timestamp":"2026-06-01T08:52:28Z","coordinateSystem":"WGS84 longitude-latitude","features":[{"type":"Feature","id":"node/3226531147","properties":{"name":"互助县","name:zh":"互助县","place":"city","osm_id":"node/3226531147","source":"OpenStreetMap"},"geometry":{"type":"Point","coordinates":[101.9521476,36.8359201]}},{"type":"Feature","id":"node/9287279775","properties":{"name":"深沟村","name:zh":"深沟村","place":"village","osm_id":"node/9287279775","source":"OpenStreetMap"},"geometry":{"type":"Point","coordinates":[101.9578827,36.8333303]}},{"type":"Feature","id":"node/9287279792","properties":{"name":"兰家寨","name:zh":"兰家寨","place":"hamlet","osm_id":"node/9287279792","source":"OpenStreetMap"},"geometry":{"type":"Point","coordinates":[101.9607942,36.8154722]}},{"type":"Feature","id":"node/9287280131","properties":{"name":"崖头村","name:zh":"崖头村","place":"village","osm_id":"node/9287280131","source":"OpenStreetMap"},"geometry":{"type":"Point","coordinates":[101.9537238,36.8470998]}},{"type":"Feature","id":"node/9287280143","properties":{"name":"阳光社区","name:zh":"阳光社区","place":"neighbourhood","osm_id":"node/9287280143","source":"OpenStreetMap"},"geometry":{"type":"Point","coordinates":[101.9444431,36.8306847]}},{"type":"Feature","id":"node/9287280298","properties":{"name":"寺壕子村","name:zh":"寺壕子村","place":"village","osm_id":"node/9287280298","source":"OpenStreetMap"},"geometry":{"type":"Point","coordinates":[101.96404,36.8433859]}},{"type":"Feature","id":"node/9287280413","properties":{"name":"兰家村","name:zh":"兰家村","place":"village","osm_id":"node/9287280413","source":"OpenStreetMap"},"geometry":{"type":"Point","coordinates":[101.9594277,36.8187704]}},{"type":"Feature","id":"node/9287280429","properties":{"name":"小庄村","name:zh":"小庄村","place":"village","osm_id":"node/9287280429","source":"OpenStreetMap"},"geometry":{"type":"Point","coordinates":[101.9338326,36.8390149]}},{"type":"Feature","id":"node/9287280442","properties":{"name":"西街社区","name:zh":"西街社区","place":"neighbourhood","osm_id":"node/9287280442","source":"OpenStreetMap"},"geometry":{"type":"Point","coordinates":[101.9505953,36.8374481]}},{"type":"Feature","id":"node/9287280459","properties":{"name":"魏家庄","name:zh":"魏家庄","place":"hamlet","osm_id":"node/9287280459","source":"OpenStreetMap"},"geometry":{"type":"Point","coordinates":[101.9394976,36.8145606]}},{"type":"Feature","id":"node/9287280571","properties":{"name":"东街社区","name:zh":"东街社区","place":"neighbourhood","osm_id":"node/9287280571","source":"OpenStreetMap"},"geometry":{"type":"Point","coordinates":[101.9625305,36.830984]}},{"type":"Feature","id":"node/9287280651","properties":{"name":"赵家庄","name:zh":"赵家庄","place":"hamlet","osm_id":"node/9287280651","source":"OpenStreetMap"},"geometry":{"type":"Point","coordinates":[101.9574627,36.8198449]}},{"type":"Feature","id":"node/9287280693","properties":{"name":"班家湾村","name:zh":"班家湾村","place":"village","osm_id":"node/9287280693","source":"OpenStreetMap"},"geometry":{"type":"Point","coordinates":[101.9369147,36.8436029]}},{"type":"Feature","id":"node/9287280701","properties":{"name":"北街社区","name:zh":"北街社区","place":"neighbourhood","osm_id":"node/9287280701","source":"OpenStreetMap"},"geometry":{"type":"Point","coordinates":[101.9563243,36.8410365]}},{"type":"Feature","id":"node/9287280756","properties":{"name":"下白崖","name:zh":"下白崖","place":"hamlet","osm_id":"node/9287280756","source":"OpenStreetMap"},"geometry":{"type":"Point","coordinates":[101.9557771,36.8543119]}},{"type":"Feature","id":"node/9287280804","properties":{"name":"吉家湾","name:zh":"吉家湾","place":"hamlet","osm_id":"node/9287280804","source":"OpenStreetMap"},"geometry":{"type":"Point","coordinates":[101.9312082,36.8238582]}},{"type":"Feature","id":"node/9287280913","properties":{"name":"周家上庄","name:zh":"周家上庄","place":"hamlet","osm_id":"node/9287280913","source":"OpenStreetMap"},"geometry":{"type":"Point","coordinates":[101.9325207,36.8158293]}},{"type":"Feature","id":"node/9287280933","properties":{"name":"西上街村","name:zh":"西上街村","place":"village","osm_id":"node/9287280933","source":"OpenStreetMap"},"geometry":{"type":"Point","coordinates":[101.9493525,36.8399494]}},{"type":"Feature","id":"node/9287281002","properties":{"name":"南街社区","name:zh":"南街社区","place":"neighbourhood","osm_id":"node/9287281002","source":"OpenStreetMap"},"geometry":{"type":"Point","coordinates":[101.9510377,36.8306312]}},{"type":"Feature","id":"node/9287281039","properties":{"name":"明珠社区","name:zh":"明珠社区","place":"neighbourhood","osm_id":"node/9287281039","source":"OpenStreetMap"},"geometry":{"type":"Point","coordinates":[101.9502079,36.8293279]}},{"type":"Feature","id":"node/9287281042","properties":{"name":"古城","name:zh":"古城","place":"hamlet","osm_id":"node/9287281042","source":"OpenStreetMap"},"geometry":{"type":"Point","coordinates":[101.9322658,36.8305644]}},{"type":"Feature","id":"node/9287281301","properties":{"name":"西林泰社区","name:zh":"西林泰社区","place":"neighbourhood","osm_id":"node/9287281301","source":"OpenStreetMap"},"geometry":{"type":"Point","coordinates":[101.9555325,36.841426]}},{"type":"Feature","id":"node/9287281306","properties":{"name":"古城村","name:zh":"古城村","place":"village","osm_id":"node/9287281306","source":"OpenStreetMap"},"geometry":{"type":"Point","coordinates":[101.9328621,36.8375667]}},{"type":"Feature","id":"node/9287281340","properties":{"name":"鼓楼花园社区","name:zh":"鼓楼花园社区","place":"neighbourhood","osm_id":"node/9287281340","source":"OpenStreetMap"},"geometry":{"type":"Point","coordinates":[101.9675836,36.8350244]}},{"type":"Feature","id":"node/9287281381","properties":{"name":"威远镇","name:zh":"威远镇","place":"town","osm_id":"node/9287281381","source":"OpenStreetMap"},"geometry":{"type":"Point","coordinates":[101.9554418,36.8412866]}},{"type":"Feature","id":"way/103179622","properties":{"highway":"primary","name":"Weibei Highway","osm_id":"way/103179622","source":"OpenStreetMap"},"geometry":{"type":"LineString","coordinates":[[101.9524996,36.8214416],[101.9525437,36.8214903],[101.9573393,36.8270853],[101.957445,36.8272189]]}},{"type":"Feature","id":"way/150193007","properties":{"highway":"primary","name":"吐谷浑大道","osm_id":"way/150193007","source":"OpenStreetMap"},"geometry":{"type":"LineString","coordinates":[[101.9410473,36.8259642],[101.9414724,36.8258298],[101.9415661,36.8257951],[101.943204,36.8251877],[101.9445626,36.8247498],[101.9446711,36.8247066],[101.9477164,36.8236779],[101.9499913,36.8228058],[101.9516505,36.821915],[101.9524114,36.8214929],[101.9524996,36.8214416]]}},{"type":"Feature","id":"way/150193009","properties":{"highway":"trunk","osm_id":"way/150193009","source":"OpenStreetMap"},"geometry":{"type":"LineString","coordinates":[[101.9631081,36.8462899],[101.9624874,36.8467565],[101.9620904,36.8469884],[101.9585917,36.8488896],[101.9581245,36.8491571],[101.9570221,36.8499424],[101.9562684,36.8504792],[101.9556569,36.8507968],[101.9541252,36.8511208],[101.9518589,36.8515438],[101.9510113,36.8516039],[101.9493321,36.851629]]}},{"type":"Feature","id":"way/150193010","properties":{"highway":"primary","osm_id":"way/150193010","source":"OpenStreetMap"},"geometry":{"type":"LineString","coordinates":[[101.9362932,36.852112],[101.9364466,36.8523209],[101.9365561,36.8524131],[101.9366941,36.8525104],[101.9369061,36.8526038],[101.9371427,36.8526541],[101.9373573,36.8526695],[101.9376561,36.8526579]]}},{"type":"Feature","id":"way/150193946","properties":{"highway":"secondary","name":"东大街","osm_id":"way/150193946","source":"OpenStreetMap"},"geometry":{"type":"LineString","coordinates":[[101.9519388,36.8372799],[101.9520971,36.8372092],[101.9539337,36.8364198],[101.9570409,36.8351787],[101.9622623,36.833093],[101.9623228,36.8330256]]}},{"type":"Feature","id":"way/150193948","properties":{"highway":"secondary","osm_id":"way/150193948","source":"OpenStreetMap"},"geometry":{"type":"LineString","coordinates":[[101.9378453,36.8382669],[101.9377364,36.8382818],[101.9376098,36.8382922],[101.9375033,36.8383121],[101.9374386,36.8383538],[101.9373641,36.8384451]]}},{"type":"Feature","id":"way/150193950","properties":{"highway":"secondary","osm_id":"way/150193950","source":"OpenStreetMap"},"geometry":{"type":"LineString","coordinates":[[101.9395126,36.8396952],[101.9397782,36.8410265]]}},{"type":"Feature","id":"way/150193951","properties":{"highway":"secondary","name":"新安东路","osm_id":"way/150193951","source":"OpenStreetMap"},"geometry":{"type":"LineString","coordinates":[[101.9653782,36.8356498],[101.9653258,36.8357469],[101.9646476,36.8370254],[101.9644706,36.8373838],[101.9641681,36.8376565],[101.9602885,36.8395033],[101.9580172,36.8405845],[101.9579193,36.8406287],[101.9550978,36.8419512],[101.9550087,36.8419914],[101.9509028,36.8439596]]}},{"type":"Feature","id":"way/150194444","properties":{"highway":"primary","name":"宁互公路","osm_id":"way/150194444","source":"OpenStreetMap"},"geometry":{"type":"LineString","coordinates":[[101.8912693,36.728044],[101.8913609,36.7282067],[101.8924211,36.7300885],[101.8949317,36.7345511],[101.8954788,36.7353851],[101.8959294,36.7359354],[101.8972296,36.7373756],[101.8983434,36.7386094],[101.9002495,36.7407471],[101.9005993,36.7411395],[101.9030963,36.7439398],[101.9032462,36.7441865],[101.9033071,36.7442867],[101.9040796,36.746307],[101.9042115,36.7466604],[101.905572,36.7503617],[101.9059716,36.7512385],[101.9062291,36.7516855],[101.9062325,36.7516906],[101.9078438,36.7540924],[101.9092721,36.7561435],[101.9095723,36.7565745],[101.9105276,36.7579464],[101.9108318,36.7584505],[101.9110426,36.7589951],[101.9119226,36.7621133],[101.9120181,36.7624517],[101.9124374,36.7639373],[101.9127521,36.765046],[101.9135294,36.7677839],[101.9135715,36.7679323],[101.9143616,36.7707154],[101.9145784,36.7714866],[101.9148532,36.7724638],[101.9153974,36.7743992],[101.9156013,36.7748839],[101.9160567,36.7759663],[101.9169971,36.7782724],[101.9181596,36.7820589],[101.9188264,36.7841105],[101.9196509,36.7866474],[101.9206556,36.7887297],[101.9231163,36.7936241],[101.9243823,36.7962531],[101.9248222,36.7978683],[101.925026,36.7986844],[101.9258951,36.8013133],[101.9276224,36.806605],[101.9282747,36.8086366],[101.9293658,36.8120617],[101.9308733,36.8167751],[101.9311093,36.8173677],[101.9314526,36.8179346],[101.9338773,36.8216535],[101.9339592,36.821796],[101.9342491,36.8223006],[101.9345066,36.8227902],[101.9348928,36.8241385],[101.9354223,36.8258532],[101.9355403,36.8261108],[101.9363209,36.8275073],[101.9363576,36.827573]]}},{"type":"Feature","id":"way/150783734","properties":{"highway":"secondary","osm_id":"way/150783734","source":"OpenStreetMap"},"geometry":{"type":"LineString","coordinates":[[101.9541252,36.8511208],[101.9538768,36.8501596],[101.9533071,36.8492057],[101.9526992,36.8479807],[101.9524166,36.8472857],[101.9509972,36.8441067],[101.9509028,36.8439596]]}},{"type":"Feature","id":"way/154993342","properties":{"name":"沙塘川","name:zh":"沙塘川","waterway":"river","osm_id":"way/154993342","source":"OpenStreetMap"},"geometry":{"type":"LineString","coordinates":[[101.9386625,36.886709],[101.9398641,36.8846667],[101.9405937,36.8808393],[101.9406795,36.8782475],[101.9407975,36.8760794],[101.9426536,36.8707463],[101.9431042,36.8684289],[101.9431686,36.8672272],[101.9426536,36.8624032],[101.9424391,36.8607379],[101.9425993,36.8601094],[101.9422953,36.8591835],[101.9425249,36.8580425],[101.9415593,36.8535613],[101.9414896,36.8527758],[101.9414949,36.852222],[101.94157,36.8518958],[101.9414949,36.851415],[101.9415164,36.8510116],[101.9415218,36.8508227],[101.9416559,36.8504921],[101.9420314,36.8502646],[101.9423371,36.8497152],[101.9427878,36.849346],[101.9432464,36.848433],[101.9432967,36.8481687],[101.9432057,36.8480321],[101.9433992,36.847768],[101.9435547,36.8477589],[101.9436571,36.847765],[101.9437368,36.8476223],[101.9437861,36.847504],[101.9436988,36.8473583],[101.9436501,36.8473434],[101.9436474,36.8473037],[101.9436885,36.8471911],[101.9438202,36.847082],[101.9440967,36.8468004],[101.9442898,36.84659],[101.9443434,36.8464355],[101.9441825,36.8463282],[101.9441825,36.8461736],[101.9441342,36.8455082],[101.9442415,36.8452549],[101.9441074,36.8448171],[101.9439197,36.8445552],[101.9438767,36.8441645],[101.9439049,36.8438679],[101.9438945,36.843674],[101.9437228,36.8434638],[101.9436086,36.8429574],[101.9436568,36.8424795],[101.9436146,36.841641],[101.9433385,36.8410017],[101.9431489,36.8398499],[101.9430422,36.8374032],[101.9431604,36.8335856]]}},{"type":"Feature","id":"way/166821901","properties":{"name":"沙塘川","name:zh":"沙塘川","waterway":"river","osm_id":"way/166821901","source":"OpenStreetMap"},"geometry":{"type":"LineString","coordinates":[[101.9431604,36.8335856],[101.9431521,36.8330395]]}},{"type":"Feature","id":"way/166821903","properties":{"highway":"trunk","osm_id":"way/166821903","source":"OpenStreetMap"},"geometry":{"type":"LineString","coordinates":[[101.941315,36.8520139],[101.9404456,36.8521673],[101.9376561,36.8526579],[101.9372682,36.8527964],[101.9370809,36.8529121],[101.9369588,36.8530508],[101.9368923,36.8531676],[101.9368476,36.8532917],[101.9368359,36.8534319],[101.9368394,36.8536671]]}},{"type":"Feature","id":"way/166821911","properties":{"highway":"trunk","osm_id":"way/166821911","source":"OpenStreetMap"},"geometry":{"type":"LineString","coordinates":[[101.9493321,36.851629],[101.948604,36.851642]]}},{"type":"Feature","id":"way/166821912","properties":{"highway":"primary","osm_id":"way/166821912","source":"OpenStreetMap"},"geometry":{"type":"LineString","coordinates":[[101.9363209,36.8275073],[101.9401528,36.8262499]]}},{"type":"Feature","id":"way/166821915","properties":{"highway":"primary","osm_id":"way/166821915","source":"OpenStreetMap"},"geometry":{"type":"LineString","coordinates":[[101.9401528,36.8262499],[101.9410473,36.8259642]]}},{"type":"Feature","id":"way/166821916","properties":{"highway":"secondary","name":"酒城南路","osm_id":"way/166821916","source":"OpenStreetMap"},"geometry":{"type":"LineString","coordinates":[[101.9453151,36.8328042],[101.9452809,36.8326741],[101.944836,36.8310778],[101.9446055,36.8303595],[101.9443655,36.8298429],[101.9438753,36.8291418],[101.9415005,36.8258902],[101.9414724,36.8258298]]}},{"type":"Feature","id":"way/166821917","properties":{"highway":"secondary","osm_id":"way/166821917","source":"OpenStreetMap"},"geometry":{"type":"LineString","coordinates":[[101.9407638,36.8405672],[101.9408621,36.840753]]}},{"type":"Feature","id":"way/166821919","properties":{"highway":"secondary","osm_id":"way/166821919","source":"OpenStreetMap"},"geometry":{"type":"LineString","coordinates":[[101.9468377,36.8392836],[101.9474934,36.839009],[101.9475389,36.83899]]}},{"type":"Feature","id":"way/166821921","properties":{"highway":"tertiary","name":"宁互东路","osm_id":"way/166821921","source":"OpenStreetMap"},"geometry":{"type":"LineString","coordinates":[[101.9372466,36.8050501],[101.9371319,36.80526],[101.9370664,36.8055815],[101.93706,36.8056595],[101.9369352,36.8071825],[101.9370008,36.8074318],[101.9371319,36.8076746],[101.9386152,36.810076],[101.9386889,36.810299],[101.9386807,36.8104762],[101.938017,36.8125691],[101.9380088,36.8128286],[101.9380826,36.8132424],[101.9383369,36.8137612],[101.9385502,36.8145888],[101.9387389,36.8150551],[101.9392147,36.8165001],[101.9400269,36.8196788],[101.9402649,36.8202962],[101.9405684,36.8210514],[101.9412658,36.8224831],[101.9420369,36.8243548],[101.9422092,36.8246306],[101.9424635,36.8248801],[101.9427753,36.8250312],[101.943204,36.8251877]]}},{"type":"Feature","id":"way/166821922","properties":{"highway":"secondary","name":"西大街","osm_id":"way/166821922","source":"OpenStreetMap"},"geometry":{"type":"LineString","coordinates":[[101.941634,36.8405209],[101.9420109,36.8404888],[101.9427291,36.840325]]}},{"type":"Feature","id":"way/166821923","properties":{"highway":"residential","osm_id":"way/166821923","source":"OpenStreetMap"},"geometry":{"type":"LineString","coordinates":[[101.9485079,36.8292222],[101.9487705,36.8291368],[101.9499358,36.8284077]]}},{"type":"Feature","id":"way/166821924","properties":{"highway":"residential","osm_id":"way/166821924","source":"OpenStreetMap"},"geometry":{"type":"LineString","coordinates":[[101.9497389,36.8313636],[101.9482836,36.8321245],[101.9482197,36.8323883]]}},{"type":"Feature","id":"way/166821926","properties":{"highway":"residential","osm_id":"way/166821926","source":"OpenStreetMap"},"geometry":{"type":"LineString","coordinates":[[101.9452767,36.8338681],[101.9455975,36.8337701],[101.9469877,36.8333422],[101.9473261,36.8332422],[101.9475559,36.8331634],[101.9483204,36.8327767]]}},{"type":"Feature","id":"way/166821928","properties":{"highway":"secondary","osm_id":"way/166821928","source":"OpenStreetMap"},"geometry":{"type":"LineString","coordinates":[[101.9519913,36.858903],[101.9521591,36.8587977],[101.9523131,36.8586612],[101.9543596,36.852057],[101.9541252,36.8511208]]}},{"type":"Feature","id":"way/166821930","properties":{"highway":"primary","osm_id":"way/166821930","source":"OpenStreetMap"},"geometry":{"type":"LineString","coordinates":[[101.9434701,36.8068878],[101.943744,36.80872],[101.944109,36.810115],[101.944646,36.81145],[101.945344,36.812746],[101.946208,36.81399],[101.9498486,36.8182714]]}},{"type":"Feature","id":"way/166821943","properties":{"waterway":"stream","osm_id":"way/166821943","source":"OpenStreetMap"},"geometry":{"type":"LineString","coordinates":[[102.0130376,36.8460249],[102.0125228,36.8456698],[102.0117862,36.8445689],[102.0105525,36.8440149],[102.0105259,36.843603],[102.0102419,36.8434396],[102.0097182,36.8433757],[102.0095585,36.8432762],[102.0094165,36.8425944],[102.0090348,36.842431],[102.0088041,36.8421611],[102.0082272,36.8419906],[102.0079609,36.8415858],[102.0079343,36.841259],[102.0077213,36.8410673],[102.0069314,36.8410388],[102.0066119,36.8408471],[102.0065852,36.8405345],[102.0064166,36.8402717],[102.0060084,36.8400657],[102.0057865,36.8397674],[102.0051475,36.839533],[102.0047747,36.8390571],[102.0036387,36.8386096],[102.0029641,36.8380911],[102.0027689,36.8376933],[102.0017305,36.8369972],[102.0007719,36.8365355],[102.0003193,36.8363437],[101.9999465,36.8360382],[101.9993874,36.8358251],[101.998846,36.8353492],[101.9981182,36.8349301],[101.9968934,36.8340635],[101.9956065,36.8333673],[101.9945858,36.8329269],[101.9940533,36.8324651],[101.9929528,36.832046],[101.9921451,36.8321242],[101.9918079,36.8318613],[101.9912221,36.8315843],[101.988382,36.8300001],[101.9876454,36.8297799],[101.9851965,36.828729],[101.9813555,36.8271785],[101.9807678,36.8266219],[101.979882,36.8259394],[101.9780112,36.8245877],[101.9758423,36.8233286],[101.9738887,36.8219569],[101.9720592,36.8207907],[101.97119,36.8203202],[101.9703953,36.8197834],[101.9700394,36.8195912],[101.9697497,36.8191605],[101.9689301,36.8184713],[101.9678291,36.8174772],[101.9659997,36.8162247],[101.9643606,36.814939],[101.9639219,36.8141173],[101.9635246,36.8136732],[101.9628085,36.8134015],[101.9622453,36.813226],[101.9610805,36.8127379],[101.959793,36.8123636],[101.957997,36.8114772],[101.9569062,36.8112671],[101.9556269,36.8104661],[101.9541671,36.8099605],[101.9531419,36.8099539],[101.9529861,36.8096585],[101.9521414,36.8091529],[101.9506898,36.8086276],[101.9489512,36.8078265],[101.9482049,36.807728],[101.9469911,36.807426],[101.9461874,36.8073406],[101.9450639,36.8070189],[101.94417,36.8067431],[101.9431613,36.8064542],[101.942538,36.806382],[101.9416195,36.8060208],[101.941275,36.8058764],[101.9406353,36.8058961],[101.9404139,36.8057188],[101.9402089,36.8055743],[101.9400203,36.8055874],[101.9395938,36.8057056],[101.9388639,36.8054364],[101.9384703,36.8052197],[101.9382242,36.804898],[101.9378634,36.8047338],[101.9369859,36.8046025],[101.9367995,36.8043189]]}},{"type":"Feature","id":"way/166821944","properties":{"waterway":"stream","osm_id":"way/166821944","source":"OpenStreetMap"},"geometry":{"type":"LineString","coordinates":[[101.9984956,36.9180654],[101.9980067,36.9178167],[101.9971445,36.9175821],[101.9965134,36.9175537],[101.9959889,36.9173618],[101.9951889,36.9170136],[101.9946822,36.9165516],[101.9935177,36.9159262],[101.9931621,36.915514],[101.9925754,36.914654],[101.9920688,36.9140854],[101.9919888,36.913524],[101.9911976,36.9127919],[101.9907887,36.9120741],[101.990442,36.9110151],[101.9898909,36.9103683],[101.9881131,36.9095225],[101.9868152,36.9082999],[101.9862552,36.9074825],[101.9856952,36.9073119],[101.9854374,36.9067717],[101.9851085,36.9064163],[101.9850285,36.9062244],[101.9847352,36.9060325],[101.9846641,36.9057908],[101.9844685,36.9055989],[101.9842285,36.9051298],[101.983704,36.9044261],[101.9834285,36.904291],[101.9831973,36.9039001],[101.9827973,36.9037224],[101.9822818,36.9032604],[101.9818499,36.903067],[101.9816151,36.9029618],[101.9811439,36.9024358],[101.9806373,36.9023505],[101.9803528,36.902059],[101.9802817,36.9016325],[101.9800861,36.9014335],[101.9798639,36.9011705],[101.9795261,36.9010283],[101.9793928,36.9005734],[101.9790639,36.9003744],[101.9789572,36.8999123],[101.9786016,36.8994218],[101.9781838,36.8985474],[101.9781838,36.8981636],[101.9780238,36.8978934],[101.9780044,36.8975636],[101.9777025,36.8970735],[101.9774804,36.8957239],[101.9771784,36.8950491],[101.9772939,36.8945377],[101.9771429,36.8942252],[101.9772051,36.8938629],[101.9769653,36.893593],[101.9767965,36.8929821],[101.9762014,36.8923214],[101.975715,36.8919353],[101.9738505,36.8904508],[101.9723249,36.88858],[101.9712486,36.8873531],[101.970418,36.8858143],[101.9695112,36.8836654],[101.9697061,36.8831299],[101.9691298,36.8817673],[101.9680789,36.8803979],[101.9665449,36.8795166],[101.9652058,36.8787302],[101.9645447,36.8781743],[101.9640277,36.8779845],[101.9633836,36.8776251],[101.9632226,36.8769675],[101.96257,36.8763031],[101.9622818,36.8754286],[101.9607648,36.8742218],[101.9595274,36.8733946],[101.9585104,36.8729268],[101.9584941,36.8724964],[101.9580751,36.8723452],[101.9579917,36.8722845],[101.9578286,36.871978],[101.9575099,36.8718536],[101.9573716,36.8716544],[101.9573241,36.8714439],[101.9569865,36.8711041],[101.9568765,36.8708674],[101.9568104,36.8705983],[101.9567862,36.8705039],[101.9567245,36.8704395],[101.9565797,36.8704094],[101.9564885,36.8703429],[101.956459,36.870167],[101.9564134,36.8699996],[101.9562611,36.8699001],[101.9559842,36.8694546],[101.9557804,36.8692915],[101.9554853,36.8692872],[101.9554254,36.8691707],[101.955061,36.8684181],[101.9541287,36.866906],[101.9538405,36.8658686],[101.953493,36.8641667],[101.9537219,36.8632445],[101.9530439,36.8624376],[101.9532049,36.8615832],[101.9526207,36.8609525],[101.9524437,36.8607251],[101.9522077,36.8605534],[101.9521487,36.8603474],[101.9520877,36.860137],[101.951918,36.8599439],[101.9517624,36.8597722],[101.9517571,36.8595147],[101.9515371,36.8593559],[101.9514246,36.8590668],[101.9510275,36.8585146],[101.95077,36.8582614],[101.9507427,36.8581036],[101.9507647,36.8579996],[101.9508183,36.8579556],[101.9508626,36.8579105],[101.9507754,36.8578279],[101.9506574,36.8577206],[101.9505226,36.8573811],[101.9501258,36.8565501],[101.9497132,36.8563985],[101.9495732,36.8560159],[101.9494127,36.8552281],[101.9494759,36.8549041],[101.9494873,36.8546339],[101.9494342,36.8543972],[101.9494835,36.8540997],[101.9494208,36.8539661],[101.9494076,36.8535443],[101.9493014,36.8533531],[101.9492385,36.8529642],[101.94892,36.8523964],[101.9488388,36.8517756],[101.9487476,36.8514923],[101.9489588,36.8512078],[101.9489944,36.8509772],[101.9488817,36.8507668],[101.9489783,36.8505651],[101.9490012,36.8500752],[101.948908,36.8496072],[101.948908,36.8477083],[101.9488626,36.8465354],[101.9482762,36.8453741],[101.9479821,36.8448897],[101.9475907,36.8444442],[101.9471217,36.8438763],[101.9469398,36.8433946],[101.9468497,36.8429666],[101.9469159,36.8424064],[101.9471539,36.8414829],[101.9471943,36.8401286],[101.9470876,36.8387233],[101.9466773,36.8377644],[101.9457583,36.8365889],[101.9436248,36.8346712],[101.9431604,36.8335856]]}},{"type":"Feature","id":"way/184335132","properties":{"highway":"primary","osm_id":"way/184335132","source":"OpenStreetMap"},"geometry":{"type":"LineString","coordinates":[[101.9497731,36.8183146],[101.9476961,36.8158556],[101.9461619,36.8140218],[101.9452795,36.8127415],[101.9445982,36.8114703],[101.9440591,36.8101264],[101.9436889,36.808722],[101.94341,36.8068837]]}},{"type":"Feature","id":"way/324467188","properties":{"natural":"water","osm_id":"way/324467188","source":"OpenStreetMap"},"geometry":{"type":"Polygon","coordinates":[[[101.9592351,36.827901],[101.9589528,36.8274833],[101.9588073,36.8272093],[101.9586705,36.8270587],[101.9585592,36.8270176],[101.9584223,36.8270587],[101.9584309,36.8272299],[101.9585336,36.8274079],[101.958756,36.8275997],[101.9590982,36.8279695],[101.9592351,36.827901]]]}},{"type":"Feature","id":"way/324467190","properties":{"natural":"water","osm_id":"way/324467190","source":"OpenStreetMap"},"geometry":{"type":"Polygon","coordinates":[[[101.9603474,36.829435],[101.9601506,36.8291885],[101.959911,36.8290789],[101.9599196,36.8289009],[101.9597314,36.8286064],[101.9596201,36.8286612],[101.959449,36.8288255],[101.9596629,36.8292227],[101.9599538,36.8294966],[101.9601249,36.8295925],[101.9603474,36.829435]]]}},{"type":"Feature","id":"way/324467191","properties":{"natural":"water","osm_id":"way/324467191","source":"OpenStreetMap"},"geometry":{"type":"Polygon","coordinates":[[[101.9641717,36.8339615],[101.9640348,36.8338245],[101.9637611,36.8337218],[101.9635814,36.8334753],[101.9633076,36.8332836],[101.963222,36.833311],[101.9631622,36.8333794],[101.9633846,36.8336054],[101.963684,36.8338588],[101.9638894,36.8339136],[101.9640092,36.83403],[101.9641717,36.8339615]]]}},{"type":"Feature","id":"way/324467194","properties":{"natural":"water","osm_id":"way/324467194","source":"OpenStreetMap"},"geometry":{"type":"Polygon","coordinates":[[[101.9601951,36.8299066],[101.9602019,36.8299692],[101.9607238,36.8304622],[101.9608607,36.8306677],[101.9611687,36.8308731],[101.9611687,36.8310169],[101.9613227,36.8310443],[101.961528,36.8309005],[101.9614938,36.8307909],[101.9612628,36.8305718],[101.9610917,36.8304006],[101.9610061,36.8302157],[101.9607837,36.830065],[101.9606725,36.8298117],[101.9605356,36.8297363],[101.9604119,36.8297872],[101.9601951,36.8299066]]]}},{"type":"Feature","id":"way/324467200","properties":{"natural":"water","osm_id":"way/324467200","source":"OpenStreetMap"},"geometry":{"type":"Polygon","coordinates":[[[101.9620414,36.8319962],[101.9619644,36.8318934],[101.9617761,36.8317565],[101.9617419,36.8314689],[101.9616136,36.8312977],[101.9613997,36.831373],[101.9614254,36.8315442],[101.9616649,36.8317839],[101.9618531,36.8320646],[101.9620414,36.8319962]]]}},{"type":"Feature","id":"way/324467202","properties":{"name":"沙塘川","name:zh":"沙塘川","waterway":"river","osm_id":"way/324467202","source":"OpenStreetMap"},"geometry":{"type":"LineString","coordinates":[[101.9431521,36.8330395],[101.9430244,36.8306753],[101.9425729,36.8295582],[101.9416622,36.8282997],[101.9412438,36.8272097],[101.941047,36.827098],[101.9405957,36.8264676],[101.9405375,36.8258635],[101.9400058,36.8250551],[101.9399018,36.8247923],[101.9396605,36.8245963],[101.9395456,36.8244253],[101.9395272,36.8241577],[101.9392835,36.8238207],[101.9392152,36.8237144],[101.9392304,36.8233075],[101.938927,36.8230494],[101.9386551,36.8226952],[101.9384073,36.8220413],[101.9380242,36.8215069],[101.9378118,36.8209178],[101.937667,36.8201369],[101.937265,36.8190861],[101.9371859,36.8189258],[101.9372314,36.8186859],[101.93739,36.8185351],[101.9375045,36.8183853],[101.9375159,36.8182578],[101.937386,36.8179398],[101.937374,36.817772],[101.9375306,36.8176336],[101.93789,36.8175262],[101.9381046,36.8174146],[101.9380778,36.8169723],[101.9376218,36.8165213],[101.937257,36.8161864],[101.9369137,36.816006],[101.9367428,36.8159046],[101.93664,36.8153919],[101.9365823,36.8147901],[101.9365865,36.814548],[101.9366187,36.8143783],[101.9369041,36.814015],[101.9369707,36.8138254],[101.9370452,36.8135452],[101.9369734,36.8130947],[101.9368635,36.8127248],[101.936909,36.8123149],[101.9368103,36.8117318],[101.9368712,36.8113176],[101.9368072,36.8100384],[101.9366324,36.8080514],[101.9364095,36.8075409],[101.9360501,36.8071329],[101.9361037,36.8065788],[101.9361342,36.806145],[101.9362396,36.8051541],[101.936388,36.8045773],[101.9367995,36.8043189]]}},{"type":"Feature","id":"way/324467203","properties":{"highway":"primary","name":"迎宾大道","osm_id":"way/324467203","source":"OpenStreetMap"},"geometry":{"type":"LineString","coordinates":[[101.957445,36.8272189],[101.9597712,36.8299955],[101.9615836,36.8321636],[101.9618529,36.832435],[101.9623228,36.8330256],[101.9624205,36.8331099],[101.9631463,36.8337704],[101.9648361,36.8352027],[101.9653253,36.8355568]]}},{"type":"Feature","id":"way/324467212","properties":{"highway":"secondary","osm_id":"way/324467212","source":"OpenStreetMap"},"geometry":{"type":"LineString","coordinates":[[101.937546,36.8341099],[101.9426201,36.8333178],[101.9435099,36.8331808],[101.9443483,36.8330028],[101.9449301,36.8328316],[101.9452809,36.8326741],[101.94537,36.8326359],[101.947536,36.8316745],[101.947653,36.8316152],[101.9524017,36.8294696],[101.9524933,36.8294282],[101.9572041,36.8271535],[101.9573393,36.8270853]]}},{"type":"Feature","id":"way/324467216","properties":{"highway":"secondary","name":"振兴大道","osm_id":"way/324467216","source":"OpenStreetMap"},"geometry":{"type":"LineString","coordinates":[[101.957445,36.8272189],[101.9573052,36.8272851],[101.9548033,36.8284694],[101.9527585,36.8294556],[101.9525072,36.8295773],[101.9477611,36.8317347],[101.9476269,36.8318017]]}},{"type":"Feature","id":"way/324467236","properties":{"highway":"unclassified","osm_id":"way/324467236","source":"OpenStreetMap"},"geometry":{"type":"LineString","coordinates":[[101.9455975,36.8337701],[101.9455547,36.833578],[101.9453151,36.8328042]]}},{"type":"Feature","id":"way/324467250","properties":{"highway":"primary","osm_id":"way/324467250","source":"OpenStreetMap"},"geometry":{"type":"LineString","coordinates":[[101.9653253,36.8355568],[101.9654149,36.8354064],[101.9659929,36.8351682],[101.9661444,36.8351058],[101.9695557,36.8335789],[101.9703067,36.8332311],[101.9708104,36.8329598],[101.9717249,36.8324082],[101.9740632,36.8309978],[101.9773871,36.829006],[101.9803762,36.8271897],[101.9805852,36.8270636]]}},{"type":"Feature","id":"way/324467254","properties":{"highway":"secondary","name":"彩虹路","osm_id":"way/324467254","source":"OpenStreetMap"},"geometry":{"type":"LineString","coordinates":[[101.9375864,36.8374153],[101.9376254,36.8376678],[101.9377225,36.8379773],[101.9377611,36.8380922],[101.9378453,36.8382669],[101.9379198,36.8383671],[101.9380204,36.8384741],[101.9394694,36.8395382],[101.9407218,36.8404476],[101.9409903,36.8404655],[101.941634,36.8405209]]}},{"type":"Feature","id":"way/409830199","properties":{"highway":"tertiary","osm_id":"way/409830199","source":"OpenStreetMap"},"geometry":{"type":"LineString","coordinates":[[101.9669727,36.8453668],[101.9702195,36.8475059],[101.9742854,36.8502409],[101.974676,36.8504754],[101.9753951,36.8507666],[101.9768422,36.851342],[101.9789284,36.8518464],[101.9861459,36.854219],[101.9919732,36.8561019],[101.9936208,36.8566342],[101.9937115,36.8566459],[101.993896,36.8566697],[101.9942955,36.8566768],[101.9955473,36.8566697],[101.9961865,36.8567265],[101.9966303,36.8568118],[101.9972797,36.8570023],[101.9975086,36.8570694]]}},{"type":"Feature","id":"way/409830200","properties":{"highway":"secondary","osm_id":"way/409830200","source":"OpenStreetMap"},"geometry":{"type":"LineString","coordinates":[[101.9543596,36.852057],[101.9545732,36.8524741],[101.9546718,36.8526668],[101.954733,36.8527866],[101.9547862,36.8530778],[101.9546975,36.8537524],[101.954662,36.8540791],[101.9552034,36.8554569],[101.9554212,36.8562057],[101.955443,36.8562807],[101.9555229,36.8569554],[101.9556294,36.8573104],[101.9557448,36.8575377],[101.9567389,36.8590432],[101.9570939,36.859725],[101.9576708,36.8611879],[101.9580702,36.8623311],[101.9584341,36.8638224],[101.9586027,36.8644047],[101.9589134,36.8649514],[101.9598897,36.8663787],[101.9605028,36.8673444],[101.9608889,36.8679526],[101.9617771,36.8690398],[101.9623011,36.8695869],[101.9632027,36.8704808],[101.9633403,36.8706172],[101.9635624,36.8708588],[101.9648858,36.87243],[101.9649569,36.8725144],[101.9651967,36.8728839],[101.9655431,36.8736725],[101.9657918,36.8740065],[101.9670175,36.8755341],[101.9673905,36.8759462],[101.9677991,36.8764009],[101.9679501,36.8767064],[101.96803,36.877154],[101.96803,36.8776229],[101.9680783,36.877812],[101.9681099,36.8779356],[101.968332,36.8783903],[101.968785,36.8790084],[101.9700729,36.8807277],[101.9714496,36.8828022],[101.9718048,36.8831503],[101.9741053,36.8853881],[101.974505,36.8858783],[101.9754997,36.8871641],[101.9758461,36.8875122],[101.976912,36.8887199],[101.9777735,36.8897855],[101.9788571,36.8913554],[101.9802427,36.8935077],[101.9816283,36.8954966],[101.9834371,36.8978859],[101.9837333,36.8983236],[101.9851455,36.9002556],[101.9854031,36.9006676],[101.9858472,36.9016193],[101.9861581,36.9022017],[101.9864068,36.9025143],[101.9867709,36.9028126],[101.987215,36.9030682],[101.9881654,36.9035512],[101.9884052,36.9037643],[101.9886983,36.9041478],[101.9892135,36.9049788],[101.9895599,36.905341],[101.9904658,36.9063566],[101.9908833,36.9068964],[101.9915583,36.9078623],[101.991807,36.9081677],[101.992411,36.9088636],[101.9936722,36.9104829],[101.9954841,36.9127483],[101.9965588,36.9141189],[101.996772,36.9142822],[101.997074,36.9144101],[101.9978378,36.9145805],[101.9982731,36.9147367],[101.9987793,36.9149853],[102.0002004,36.9158871],[102.0005646,36.9160505],[102.0011863,36.916299],[102.0015327,36.9165476],[102.0026696,36.91735],[102.0030249,36.917563],[102.0044874,36.9183521]]}},{"type":"Feature","id":"way/409830227","properties":{"landuse":"industrial","osm_id":"way/409830227","source":"OpenStreetMap"},"geometry":{"type":"Polygon","coordinates":[[[101.9719783,36.8488377],[101.9699635,36.8475167],[101.9691647,36.8482127],[101.9689694,36.8483334],[101.9684901,36.8489585],[101.9676825,36.8489656],[101.9673896,36.8495764],[101.968854,36.8502369],[101.9705759,36.8513093],[101.9731232,36.8520195],[101.9738333,36.8500877],[101.9719783,36.8488377]]]}},{"type":"Feature","id":"way/588404553","properties":{"highway":"tertiary","name":"北大街","osm_id":"way/588404553","source":"OpenStreetMap"},"geometry":{"type":"LineString","coordinates":[[101.9543843,36.8411092],[101.9539698,36.8405076],[101.9531061,36.8393098],[101.9528732,36.8390049],[101.9519891,36.8377387],[101.9518161,36.8375944]]}},{"type":"Feature","id":"way/588404555","properties":{"highway":"secondary","name":"西大街","osm_id":"way/588404555","source":"OpenStreetMap"},"geometry":{"type":"LineString","coordinates":[[101.9468681,36.8393867],[101.9467923,36.8394199],[101.943666,36.8402725]]}},{"type":"Feature","id":"way/588404557","properties":{"highway":"footway","osm_id":"way/588404557","source":"OpenStreetMap"},"geometry":{"type":"LineString","coordinates":[[101.951396,36.8374977],[101.9514626,36.8376049]]}},{"type":"Feature","id":"way/588404558","properties":{"highway":"footway","osm_id":"way/588404558","source":"OpenStreetMap"},"geometry":{"type":"LineString","coordinates":[[101.9519891,36.8377387],[101.9520745,36.8377083]]}},{"type":"Feature","id":"way/588404559","properties":{"highway":"footway","osm_id":"way/588404559","source":"OpenStreetMap"},"geometry":{"type":"LineString","coordinates":[[101.9521644,36.8373168],[101.9520971,36.8372092]]}},{"type":"Feature","id":"way/588404560","properties":{"highway":"footway","osm_id":"way/588404560","source":"OpenStreetMap"},"geometry":{"type":"LineString","coordinates":[[101.9515137,36.8370933],[101.9516202,36.8370329]]}},{"type":"Feature","id":"way/588404561","properties":{"highway":"secondary","osm_id":"way/588404561","source":"OpenStreetMap"},"geometry":{"type":"LineString","coordinates":[[101.9416491,36.8406137],[101.9408621,36.840753],[101.9397782,36.8410265],[101.936935,36.8423575],[101.9365779,36.8425863],[101.93642,36.8427092]]}},{"type":"Feature","id":"way/588404562","properties":{"highway":"secondary","osm_id":"way/588404562","source":"OpenStreetMap"},"geometry":{"type":"LineString","coordinates":[[101.9416491,36.8406137],[101.9412905,36.8405904],[101.9407638,36.8405672]]}},{"type":"Feature","id":"way/588404563","properties":{"highway":"secondary","osm_id":"way/588404563","source":"OpenStreetMap"},"geometry":{"type":"LineString","coordinates":[[101.9407638,36.8405672],[101.9405151,36.8404206],[101.9396246,36.8397809],[101.9395126,36.8396952],[101.9388283,36.8391719],[101.9379377,36.8385064],[101.937836,36.83841],[101.9377364,36.8382818],[101.9376709,36.8381178],[101.9376287,36.8379756],[101.9375347,36.8376666]]}},{"type":"Feature","id":"way/588404566","properties":{"highway":"secondary","name":"南大街","osm_id":"way/588404566","source":"OpenStreetMap"},"geometry":{"type":"LineString","coordinates":[[101.9477611,36.8317347],[101.9482197,36.8323883],[101.9483277,36.832551],[101.9483968,36.8326553],[101.9489109,36.8333664],[101.948996,36.8334841],[101.9493765,36.8339185],[101.9495602,36.8342221],[101.9506911,36.8357733],[101.9507974,36.8359191],[101.9510795,36.8363272],[101.9516202,36.8370329],[101.9518013,36.8372455]]}},{"type":"Feature","id":"way/588404569","properties":{"highway":"secondary","name":"南大街","osm_id":"way/588404569","source":"OpenStreetMap"},"geometry":{"type":"LineString","coordinates":[[101.9516337,36.8373159],[101.9515137,36.8370933],[101.9512067,36.8366907],[101.9505185,36.8357374],[101.9494399,36.8342674],[101.9483204,36.8327767],[101.9479567,36.832207],[101.9476269,36.8318017]]}},{"type":"Feature","id":"way/588404570","properties":{"highway":"secondary_link","name":"南大街","osm_id":"way/588404570","source":"OpenStreetMap"},"geometry":{"type":"LineString","coordinates":[[101.9446711,36.8247066],[101.9447054,36.8248107],[101.9462529,36.8285065],[101.9472354,36.8308812],[101.9473411,36.8310609],[101.9475036,36.8313686],[101.947653,36.8316152]]}},{"type":"Feature","id":"way/588404571","properties":{"highway":"secondary","name":"天佑德大道","osm_id":"way/588404571","source":"OpenStreetMap"},"geometry":{"type":"LineString","coordinates":[[101.9476269,36.8318017],[101.9454447,36.8327455],[101.9453151,36.8328042],[101.9448275,36.8330028],[101.9444082,36.8331329],[101.9434226,36.8333643],[101.942525,36.8334616],[101.9375499,36.834234]]}},{"type":"Feature","id":"way/588404572","properties":{"highway":"secondary","osm_id":"way/588404572","source":"OpenStreetMap"},"geometry":{"type":"LineString","coordinates":[[101.9477611,36.8317347],[101.947653,36.8316152]]}},{"type":"Feature","id":"way/588404573","properties":{"highway":"secondary","osm_id":"way/588404573","source":"OpenStreetMap"},"geometry":{"type":"LineString","coordinates":[[101.9476269,36.8318017],[101.947536,36.8316745]]}},{"type":"Feature","id":"way/588404574","properties":{"highway":"secondary","osm_id":"way/588404574","source":"OpenStreetMap"},"geometry":{"type":"LineString","coordinates":[[101.9624205,36.8331099],[101.9623279,36.8331615],[101.962203,36.8332082],[101.9612963,36.8335665],[101.9605693,36.833854],[101.9600929,36.8340424],[101.9593356,36.834371],[101.9571106,36.8352425],[101.9568335,36.835351],[101.9561791,36.8356215],[101.955389,36.8359349],[101.954956,36.8361067],[101.9545542,36.8362718],[101.9539636,36.8365146],[101.9535585,36.8367389],[101.952829,36.8370276],[101.9521644,36.8373168],[101.9520266,36.837414]]}},{"type":"Feature","id":"way/588404575","properties":{"highway":"secondary","osm_id":"way/588404575","source":"OpenStreetMap"},"geometry":{"type":"LineString","coordinates":[[101.9508651,36.8439014],[101.9517074,36.8433951],[101.9530084,36.8427704],[101.9545858,36.8420677],[101.9549227,36.8418854],[101.9550287,36.8418357],[101.9563351,36.8411969],[101.957842,36.8405637],[101.9579632,36.8405128],[101.9602234,36.8394296],[101.9607156,36.8391937],[101.9626676,36.8382892],[101.9640499,36.8376239],[101.9645356,36.8370707],[101.9652315,36.8356619],[101.9653253,36.8355568]]}},{"type":"Feature","id":"way/588404578","properties":{"highway":"secondary","osm_id":"way/588404578","source":"OpenStreetMap"},"geometry":{"type":"LineString","coordinates":[[101.947536,36.8316745],[101.9472834,36.8311732],[101.9469293,36.8304346],[101.9464143,36.8291551],[101.9459959,36.8281847],[101.9454809,36.8268793],[101.9450089,36.8258058],[101.9446214,36.8248436],[101.9445626,36.8247498]]}},{"type":"Feature","id":"way/588404580","properties":{"highway":"residential","osm_id":"way/588404580","source":"OpenStreetMap"},"geometry":{"type":"LineString","coordinates":[[101.9564396,36.8440848],[101.9561672,36.8436944],[101.9560212,36.8434567],[101.9559274,36.843304],[101.9553989,36.8425362],[101.9550087,36.8419914]]}},{"type":"Feature","id":"way/588404581","properties":{"highway":"tertiary","osm_id":"way/588404581","source":"OpenStreetMap"},"geometry":{"type":"LineString","coordinates":[[101.9669727,36.8453668],[101.9659561,36.8448027],[101.965552,36.8445755],[101.9653685,36.8444723],[101.9650442,36.8442899],[101.9636038,36.843504],[101.9626848,36.843054],[101.9610087,36.8422255],[101.9594929,36.8414562],[101.9579193,36.8406287],[101.957842,36.8405637],[101.957454,36.8400635],[101.9557428,36.8378579],[101.9556886,36.8377884],[101.9552332,36.8372053]]}},{"type":"Feature","id":"way/588404584","properties":{"highway":"primary","name":"威北公路","osm_id":"way/588404584","source":"OpenStreetMap"},"geometry":{"type":"LineString","coordinates":[[101.9710987,36.840537],[101.970888,36.8404536],[101.9669222,36.8370893],[101.9653258,36.8357469],[101.9652315,36.8356619]]}},{"type":"Feature","id":"way/588404590","properties":{"highway":"residential","osm_id":"way/588404590","source":"OpenStreetMap"},"geometry":{"type":"LineString","coordinates":[[101.9493765,36.8339185],[101.9496532,36.8337591]]}},{"type":"Feature","id":"way/588404594","properties":{"highway":"living_street","osm_id":"way/588404594","source":"OpenStreetMap"},"geometry":{"type":"LineString","coordinates":[[101.948996,36.8334841],[101.9493597,36.8332405],[101.9494654,36.8333121],[101.9500102,36.8329542],[101.9503029,36.8327134],[101.9508965,36.8323229]]}},{"type":"Feature","id":"way/588404597","properties":{"landuse":"industrial","name":"威远酒厂","osm_id":"way/588404597","source":"OpenStreetMap"},"geometry":{"type":"Polygon","coordinates":[[[101.947386,36.8387136],[101.946952,36.8378219],[101.9467911,36.8374871],[101.9464692,36.8369289],[101.9460722,36.8362763],[101.9451281,36.8357268],[101.9442912,36.8349539],[101.9437441,36.8344645],[101.9437119,36.8342927],[101.9438448,36.8342809],[101.9440016,36.834267],[101.9442613,36.83418],[101.9444629,36.8341124],[101.9451281,36.8340008],[101.9452568,36.8343099],[101.9452998,36.8344215],[101.9453886,36.8344127],[101.9456431,36.8343872],[101.945922,36.8343185],[101.9461044,36.8342584],[101.9460186,36.8339321],[101.9463083,36.8337775],[101.9466516,36.8337346],[101.9468662,36.8336229],[101.9471237,36.83358],[101.9472739,36.8334855],[101.9473704,36.8335542],[101.9474241,36.833872],[101.9475528,36.834413],[101.9476816,36.8350484],[101.9478318,36.8353232],[101.9481268,36.8360187],[101.9483172,36.8363407],[101.948509,36.8366133],[101.9484547,36.8368699],[101.9487601,36.8375219],[101.9489004,36.8377788],[101.9489975,36.8381004],[101.9488253,36.8382069],[101.9487799,36.8382349],[101.94879,36.8383174],[101.9483712,36.8385084],[101.9482652,36.8383959],[101.9481851,36.8384248],[101.947386,36.8387136]]]}},{"type":"Feature","id":"way/588404600","properties":{"highway":"footway","name":"鼎金美食街","osm_id":"way/588404600","source":"OpenStreetMap"},"geometry":{"type":"LineString","coordinates":[[101.9505019,36.8359254],[101.9493148,36.8364721],[101.9494286,36.8367194],[101.9494124,36.8369276],[101.9500351,36.8380033]]}},{"type":"Feature","id":"way/588404610","properties":{"highway":"residential","name":"北街东巷","osm_id":"way/588404610","source":"OpenStreetMap"},"geometry":{"type":"LineString","coordinates":[[101.9530237,36.839025],[101.9552795,36.8379694],[101.9556886,36.8377884],[101.9557653,36.83775],[101.9559896,36.8376475],[101.9582963,36.8367459]]}},{"type":"Feature","id":"way/588404611","properties":{"highway":"footway","name":"北街西巷","osm_id":"way/588404611","source":"OpenStreetMap"},"geometry":{"type":"LineString","coordinates":[[101.9528732,36.8390049],[101.9513581,36.8397613]]}},{"type":"Feature","id":"way/588404625","properties":{"highway":"footway","osm_id":"way/588404625","source":"OpenStreetMap"},"geometry":{"type":"LineString","coordinates":[[101.9560212,36.8434567],[101.955123,36.8440318],[101.9551655,36.8441451],[101.9550664,36.8442017],[101.9555477,36.8446322],[101.9554628,36.8447115]]}},{"type":"Feature","id":"way/588404631","properties":{"highway":"primary","name":"安定西路","osm_id":"way/588404631","source":"OpenStreetMap"},"geometry":{"type":"LineString","coordinates":[[101.980725,36.8271368],[101.9806115,36.8272049],[101.9805047,36.8272695],[101.9796652,36.827757],[101.9789307,36.8281835],[101.9776869,36.8289058],[101.9774458,36.8290458],[101.9741693,36.8311023],[101.9723503,36.8322028],[101.9718404,36.8325056],[101.9703548,36.8333879],[101.9685309,36.8342638],[101.9662349,36.835174],[101.9660574,36.83525],[101.9655114,36.8354836],[101.9653782,36.8356498]]}},{"type":"Feature","id":"way/588404637","properties":{"highway":"unclassified","osm_id":"way/588404637","source":"OpenStreetMap"},"geometry":{"type":"LineString","coordinates":[[101.9467923,36.8394199],[101.946857,36.840406],[101.9468664,36.8413254],[101.9467263,36.8418188],[101.9466854,36.8419306],[101.9466346,36.8420696],[101.9465167,36.8423922],[101.9464367,36.8426111],[101.9467169,36.8432614],[101.946911,36.8435865],[101.947259,36.8441085],[101.9474174,36.8444349]]}},{"type":"Feature","id":"way/588404645","properties":{"highway":"living_street","osm_id":"way/588404645","source":"OpenStreetMap"},"geometry":{"type":"LineString","coordinates":[[101.9513581,36.8397613],[101.9510533,36.839909],[101.9508579,36.8400037],[101.9500208,36.8404093],[101.949651,36.8405159],[101.9494046,36.8405868],[101.9493183,36.8407348],[101.9494293,36.8409912]]}},{"type":"Feature","id":"way/588404647","properties":{"highway":"living_street","osm_id":"way/588404647","source":"OpenStreetMap"},"geometry":{"type":"LineString","coordinates":[[101.9499687,36.8381562],[101.9503289,36.8387128],[101.9506617,36.8392356],[101.9510533,36.839909]]}},{"type":"Feature","id":"way/588404649","properties":{"highway":"living_street","osm_id":"way/588404649","source":"OpenStreetMap"},"geometry":{"type":"LineString","coordinates":[[101.9493183,36.8407348],[101.9492369,36.840515],[101.9491718,36.8403523],[101.9492043,36.8401245],[101.9491718,36.8399163],[101.9491637,36.8396755],[101.9491474,36.8394608],[101.9489685,36.8389662],[101.948871,36.83881]]}},{"type":"Feature","id":"way/588404662","properties":{"highway":"tertiary","osm_id":"way/588404662","source":"OpenStreetMap"},"geometry":{"type":"LineString","coordinates":[[101.9624193,36.8322234],[101.9622698,36.8325673],[101.9623228,36.8330256]]}},{"type":"Feature","id":"way/588404663","properties":{"highway":"tertiary","osm_id":"way/588404663","source":"OpenStreetMap"},"geometry":{"type":"LineString","coordinates":[[101.9615836,36.8321636],[101.9619336,36.8322982],[101.9621518,36.8322559],[101.9628052,36.8319723],[101.9631851,36.831745],[101.9665024,36.830485],[101.9673622,36.8301467],[101.9682634,36.8296872],[101.9688138,36.8293499],[101.9710767,36.8279633],[101.9711924,36.8278924],[101.9737974,36.8262873],[101.9765514,36.8245903]]}},{"type":"Feature","id":"way/588404664","properties":{"highway":"primary","name":"迎宾大道","osm_id":"way/588404664","source":"OpenStreetMap"},"geometry":{"type":"LineString","coordinates":[[101.9622623,36.833093],[101.9617531,36.8324943],[101.9596477,36.8300515],[101.9583019,36.8284679],[101.9576026,36.8275957],[101.9573052,36.8272851],[101.9572041,36.8271535]]}},{"type":"Feature","id":"way/588404665","properties":{"highway":"primary","osm_id":"way/588404665","source":"OpenStreetMap"},"geometry":{"type":"LineString","coordinates":[[101.9572041,36.8271535],[101.9551365,36.8246978],[101.9541714,36.8235344],[101.952457,36.8215417]]}},{"type":"Feature","id":"way/588404667","properties":{"highway":"residential","osm_id":"way/588404667","source":"OpenStreetMap"},"geometry":{"type":"LineString","coordinates":[[101.9506911,36.8357733],[101.9524395,36.8350221]]}},{"type":"Feature","id":"way/588404668","properties":{"highway":"residential","osm_id":"way/588404668","source":"OpenStreetMap"},"geometry":{"type":"LineString","coordinates":[[101.9510795,36.8363272],[101.9522623,36.8357667]]}},{"type":"Feature","id":"way/588404672","properties":{"highway":"living_street","osm_id":"way/588404672","source":"OpenStreetMap"},"geometry":{"type":"LineString","coordinates":[[101.943612,36.8401002],[101.9434391,36.839663],[101.9433924,36.838766],[101.9433083,36.8375177]]}},{"type":"Feature","id":"way/588404673","properties":{"highway":"living_street","osm_id":"way/588404673","source":"OpenStreetMap"},"geometry":{"type":"LineString","coordinates":[[101.9433083,36.8375177],[101.943299,36.8368524],[101.9433083,36.8363217],[101.9435698,36.8361049],[101.9438687,36.8361423],[101.9441209,36.8360525],[101.9443264,36.8358881],[101.9447467,36.8359329],[101.9458395,36.8368898],[101.9463999,36.8376298],[101.9468949,36.8388333],[101.9468377,36.8392836]]}},{"type":"Feature","id":"way/588404674","properties":{"highway":"living_street","osm_id":"way/588404674","source":"OpenStreetMap"},"geometry":{"type":"LineString","coordinates":[[101.9428833,36.840286],[101.9428921,36.8392936],[101.9428277,36.8379455],[101.9428599,36.8367691],[101.9427955,36.8348456],[101.9427633,36.8343132],[101.9427311,36.8336091]]}},{"type":"Feature","id":"way/588404690","properties":{"highway":"living_street","osm_id":"way/588404690","source":"OpenStreetMap"},"geometry":{"type":"LineString","coordinates":[[101.957454,36.8400635],[101.9573665,36.8400521],[101.9566266,36.8398163],[101.9564294,36.8397078],[101.9562076,36.8394908],[101.9557886,36.8388398],[101.9555174,36.838465],[101.9553203,36.8380606],[101.9552795,36.8379694],[101.9549505,36.8372321],[101.9547164,36.8367487],[101.9545542,36.8362718]]}},{"type":"Feature","id":"way/588404692","properties":{"highway":"tertiary","name":"毛斯北路","osm_id":"way/588404692","source":"OpenStreetMap"},"geometry":{"type":"LineString","coordinates":[[101.9718468,36.8397555],[101.9685852,36.8369735],[101.9680971,36.8365913],[101.9674855,36.8361835],[101.9660574,36.83525],[101.9659929,36.8351682],[101.9657797,36.8349555],[101.9653505,36.8346249],[101.9643527,36.8340238],[101.963886,36.8336889],[101.9633818,36.833178],[101.963076,36.83271],[101.9628419,36.832052],[101.9628052,36.8319723],[101.960892,36.8294542],[101.9607508,36.8292684],[101.9585823,36.8265769],[101.9584974,36.8264897],[101.9561183,36.8237401],[101.9536666,36.8208947],[101.9536385,36.8208508]]}},{"type":"Feature","id":"way/588404696","properties":{"highway":"primary","osm_id":"way/588404696","source":"OpenStreetMap"},"geometry":{"type":"LineString","coordinates":[[101.9525437,36.8214903],[101.952457,36.8215417],[101.9515722,36.8220494],[101.950235,36.8227844],[101.9497051,36.8230064],[101.9487376,36.8234059],[101.9477472,36.8237663],[101.9447054,36.8248107],[101.9446214,36.8248436],[101.9443194,36.82494],[101.9426495,36.8254727],[101.9416134,36.8258523],[101.9415005,36.8258902],[101.9410427,36.8260456]]}},{"type":"Feature","id":"way/588404697","properties":{"highway":"primary","osm_id":"way/588404697","source":"OpenStreetMap"},"geometry":{"type":"LineString","coordinates":[[101.9640296,36.8156124],[101.9608011,36.8172353],[101.9580591,36.8186136],[101.9570089,36.8191432],[101.9536385,36.8208508],[101.9524996,36.8214416]]}},{"type":"Feature","id":"way/588404700","properties":{"highway":"secondary","osm_id":"way/588404700","source":"OpenStreetMap"},"geometry":{"type":"LineString","coordinates":[[101.9415661,36.8257951],[101.9416134,36.8258523],[101.9431308,36.8279003],[101.9444305,36.8297634],[101.9447294,36.8304064],[101.94537,36.8326359],[101.9454447,36.8327455]]}},{"type":"Feature","id":"way/588404709","properties":{"highway":"residential","osm_id":"way/588404709","source":"OpenStreetMap"},"geometry":{"type":"LineString","coordinates":[[101.9539337,36.8364198],[101.9530195,36.8352134],[101.9528531,36.835169],[101.9527175,36.8351788],[101.9524395,36.8350221]]}},{"type":"Feature","id":"way/909948470","properties":{"highway":"residential","osm_id":"way/909948470","source":"OpenStreetMap"},"geometry":{"type":"LineString","coordinates":[[101.9552332,36.8372053],[101.9553029,36.8371752]]}},{"type":"Feature","id":"way/909948471","properties":{"highway":"secondary","osm_id":"way/909948471","source":"OpenStreetMap"},"geometry":{"type":"LineString","coordinates":[[101.9550087,36.8419914],[101.9549227,36.8418854],[101.9543843,36.8411092]]}},{"type":"Feature","id":"way/909948472","properties":{"highway":"residential","name":"北大街","osm_id":"way/909948472","source":"OpenStreetMap"},"geometry":{"type":"LineString","coordinates":[[101.9550978,36.8419512],[101.9565152,36.8440404]]}},{"type":"Feature","id":"way/909948473","properties":{"highway":"unclassified","osm_id":"way/909948473","source":"OpenStreetMap"},"geometry":{"type":"LineString","coordinates":[[101.9565152,36.8440404],[101.9564396,36.8440848]]}},{"type":"Feature","id":"way/909948475","properties":{"highway":"tertiary","osm_id":"way/909948475","source":"OpenStreetMap"},"geometry":{"type":"LineString","coordinates":[[101.9669555,36.8370247],[101.9669222,36.8370893],[101.9638256,36.8430996],[101.9636459,36.8433961],[101.9636038,36.843504],[101.9631671,36.8455086],[101.9630383,36.8461182],[101.9631081,36.8462899]]}},{"type":"Feature","id":"way/909948476","properties":{"highway":"trunk","osm_id":"way/909948476","source":"OpenStreetMap"},"geometry":{"type":"LineString","coordinates":[[101.9418109,36.8519264],[101.941315,36.8520139]]}},{"type":"Feature","id":"way/909948477","properties":{"highway":"trunk","osm_id":"way/909948477","source":"OpenStreetMap"},"geometry":{"type":"LineString","coordinates":[[101.948604,36.851642],[101.9465159,36.8516468],[101.9434796,36.8516811],[101.9424711,36.8518099],[101.9418109,36.8519264]]}},{"type":"Feature","id":"way/909948479","properties":{"highway":"tertiary","osm_id":"way/909948479","source":"OpenStreetMap"},"geometry":{"type":"LineString","coordinates":[[101.9713078,36.8198556],[101.9706639,36.8202763]]}},{"type":"Feature","id":"way/909948480","properties":{"highway":"tertiary","osm_id":"way/909948480","source":"OpenStreetMap"},"geometry":{"type":"LineString","coordinates":[[101.9706639,36.8202763],[101.9703963,36.820452],[101.9690487,36.8213317],[101.9678677,36.8219907],[101.9661615,36.8228237],[101.9637012,36.8240248],[101.9585823,36.8265769],[101.957445,36.8272189]]}},{"type":"Feature","id":"way/909948481","properties":{"highway":"tertiary","osm_id":"way/909948481","source":"OpenStreetMap"},"geometry":{"type":"LineString","coordinates":[[101.9705418,36.820211],[101.9712249,36.8197758]]}},{"type":"Feature","id":"way/909948482","properties":{"highway":"tertiary","osm_id":"way/909948482","source":"OpenStreetMap"},"geometry":{"type":"LineString","coordinates":[[101.9573393,36.8270853],[101.9584974,36.8264897],[101.9586961,36.8263875],[101.9635899,36.8239221],[101.9660887,36.8227082],[101.9678335,36.8218606],[101.9689546,36.8212221],[101.9702891,36.8203749],[101.9705418,36.820211]]}},{"type":"Feature","id":"way/909948487","properties":{"highway":"residential","osm_id":"way/909948487","source":"OpenStreetMap"},"geometry":{"type":"LineString","coordinates":[[101.9784744,36.8259027],[101.9756069,36.8276923],[101.9726354,36.8295241],[101.9703389,36.8309519]]}},{"type":"Feature","id":"way/909948490","properties":{"highway":"tertiary","osm_id":"way/909948490","source":"OpenStreetMap"},"geometry":{"type":"LineString","coordinates":[[101.9608011,36.8172353],[101.9608463,36.8172881],[101.9634433,36.8199296],[101.9660887,36.8227082],[101.9661615,36.8228237],[101.9686657,36.8254792],[101.9710767,36.8279633],[101.9711324,36.8280186],[101.9726354,36.8295241],[101.9740632,36.8309978],[101.9741693,36.8311023],[101.9790215,36.8345331],[101.9791789,36.8346553],[101.982463,36.8368189]]}},{"type":"Feature","id":"way/909948491","properties":{"highway":"tertiary","osm_id":"way/909948491","source":"OpenStreetMap"},"geometry":{"type":"LineString","coordinates":[[101.9494399,36.8342674],[101.9495602,36.8342221],[101.9520736,36.8332982],[101.9546699,36.8322635],[101.9596477,36.8300515],[101.9597712,36.8299955],[101.960892,36.8294542],[101.9650394,36.8274974],[101.9663536,36.8267803],[101.9676948,36.8260417],[101.9686657,36.8254792],[101.9709563,36.8241523],[101.9735688,36.8225893]]}},{"type":"Feature","id":"way/909948493","properties":{"highway":"tertiary","osm_id":"way/909948493","source":"OpenStreetMap"},"geometry":{"type":"LineString","coordinates":[[101.9670962,36.8179883],[101.9634433,36.8199296],[101.9610161,36.8211893],[101.9561183,36.8237401]]}},{"type":"Feature","id":"way/909948494","properties":{"highway":"unclassified","osm_id":"way/909948494","source":"OpenStreetMap"},"geometry":{"type":"LineString","coordinates":[[101.9570485,36.8191926],[101.9570089,36.8191432],[101.956926,36.8190207],[101.9571688,36.8183605],[101.9548416,36.8157526],[101.9508076,36.8113634],[101.9507665,36.8113477],[101.9507234,36.8113362],[101.9506788,36.8113291],[101.9506284,36.8113264],[101.950578,36.8113293],[101.9505286,36.8113377],[101.9477177,36.8134808]]}},{"type":"Feature","id":"way/909948495","properties":{"highway":"unclassified","osm_id":"way/909948495","source":"OpenStreetMap"},"geometry":{"type":"LineString","coordinates":[[101.9497132,36.8184023],[101.9500983,36.8182033],[101.9548416,36.8157526],[101.9571161,36.8145158]]}},{"type":"Feature","id":"way/909948505","properties":{"highway":"primary","osm_id":"way/909948505","source":"OpenStreetMap"},"geometry":{"type":"LineString","coordinates":[[101.9858566,36.8297432],[101.9857085,36.8296142],[101.9805047,36.8272695],[101.9803762,36.8271897],[101.9802582,36.8271109],[101.9784744,36.8259027],[101.9766319,36.8246547],[101.9765514,36.8245903],[101.9735688,36.8225893],[101.9703963,36.820452],[101.9702891,36.8203749],[101.9699159,36.8201229],[101.9693951,36.8197583],[101.9670962,36.8179883],[101.9640923,36.8156603],[101.9640296,36.8156124]]}},{"type":"Feature","id":"way/909948508","properties":{"highway":"primary","osm_id":"way/909948508","source":"OpenStreetMap"},"geometry":{"type":"LineString","coordinates":[[101.9652315,36.8356619],[101.9651469,36.8355897],[101.9650535,36.8355082],[101.9647086,36.8352632],[101.9639846,36.8346263],[101.9630692,36.8338414],[101.9623279,36.8331615],[101.9622623,36.833093]]}},{"type":"Feature","id":"way/909948511","properties":{"highway":"tertiary","osm_id":"way/909948511","source":"OpenStreetMap"},"geometry":{"type":"LineString","coordinates":[[101.9580591,36.8186136],[101.9581096,36.8186605],[101.9610161,36.8211893],[101.9635899,36.8239221],[101.9637012,36.8240248],[101.9663536,36.8267803],[101.9688138,36.8293499],[101.9688664,36.8294048],[101.9703389,36.8309519],[101.9717249,36.8324082],[101.9718404,36.8325056],[101.9740999,36.8342557],[101.9766892,36.8362308],[101.9768411,36.8363466],[101.976848,36.836352],[101.9791639,36.8381369],[101.9794804,36.8382228],[101.9800112,36.8382965],[101.9804701,36.8383602],[101.9807557,36.8383753],[101.9808778,36.8383817],[101.981256,36.8383559],[101.9824952,36.8380768],[101.9836968,36.8378064],[101.9840348,36.8377076],[101.9842172,36.8376475],[101.9844103,36.8376776],[101.9847429,36.8377248],[101.9850379,36.8377248],[101.9851989,36.8377548],[101.9853866,36.8378278],[101.9856065,36.8379137]]}},{"type":"Feature","id":"way/909948512","properties":{"highway":"tertiary","osm_id":"way/909948512","source":"OpenStreetMap"},"geometry":{"type":"LineString","coordinates":[[101.9462529,36.8285065],[101.9482112,36.8277979],[101.9502282,36.8270122],[101.9551365,36.8246978]]}},{"type":"Feature","id":"way/909948513","properties":{"highway":"residential","osm_id":"way/909948513","source":"OpenStreetMap"},"geometry":{"type":"LineString","coordinates":[[101.948114,36.8300958],[101.9480155,36.8302798],[101.9480319,36.8306148],[101.947958,36.830733],[101.94772,36.8308578],[101.9473411,36.8310609]]}},{"type":"Feature","id":"way/909948514","properties":{"highway":"tertiary","osm_id":"way/909948514","source":"OpenStreetMap"},"geometry":{"type":"LineString","coordinates":[[101.9454861,36.8148722],[101.9413984,36.8164382],[101.9412618,36.8164906]]}},{"type":"Feature","id":"way/909948515","properties":{"highway":"tertiary","osm_id":"way/909948515","source":"OpenStreetMap"},"geometry":{"type":"LineString","coordinates":[[101.9411838,36.8162894],[101.9413179,36.8162422],[101.9454271,36.814709]]}},{"type":"Feature","id":"way/909948516","properties":{"highway":"secondary_link","name":"南大街","osm_id":"way/909948516","source":"OpenStreetMap"},"geometry":{"type":"LineString","coordinates":[[101.9413179,36.8162422],[101.9413984,36.8164382],[101.9429541,36.8202274],[101.9446711,36.8247066]]}},{"type":"Feature","id":"way/909948517","properties":{"highway":"secondary_link","name":"南大街","osm_id":"way/909948517","source":"OpenStreetMap"},"geometry":{"type":"LineString","coordinates":[[101.9445626,36.8247498],[101.9419348,36.8182262],[101.9412618,36.8164906],[101.9411838,36.8162894]]}},{"type":"Feature","id":"way/909948518","properties":{"highway":"primary","osm_id":"way/909948518","source":"OpenStreetMap"},"geometry":{"type":"LineString","coordinates":[[101.9499212,36.8183568],[101.9524265,36.8213622],[101.9524996,36.8214416]]}},{"type":"Feature","id":"way/909948519","properties":{"highway":"primary","osm_id":"way/909948519","source":"OpenStreetMap"},"geometry":{"type":"LineString","coordinates":[[101.9498486,36.8182714],[101.9499212,36.8183568]]}},{"type":"Feature","id":"way/909948520","properties":{"highway":"primary","osm_id":"way/909948520","source":"OpenStreetMap"},"geometry":{"type":"LineString","coordinates":[[101.9498408,36.8183947],[101.9497731,36.8183146]]}},{"type":"Feature","id":"way/909948521","properties":{"highway":"primary","osm_id":"way/909948521","source":"OpenStreetMap"},"geometry":{"type":"LineString","coordinates":[[101.952457,36.8215417],[101.9524114,36.8214929],[101.9523377,36.8214078],[101.9507029,36.8194153],[101.9498408,36.8183947]]}},{"type":"Feature","id":"way/909948522","properties":{"highway":"tertiary","osm_id":"way/909948522","source":"OpenStreetMap"},"geometry":{"type":"LineString","coordinates":[[101.9602885,36.8395033],[101.9602234,36.8394296],[101.9594926,36.8383001],[101.9582963,36.8367459],[101.9579794,36.8363441],[101.9571106,36.8352425],[101.9570409,36.8351787],[101.9546699,36.8322635],[101.9525072,36.8295773],[101.9524017,36.8294696],[101.9502282,36.8270122],[101.9486725,36.8252645],[101.9482434,36.8246376],[101.9477472,36.8237663],[101.9477164,36.8236779],[101.9464678,36.8203605],[101.946465,36.8202825],[101.9464706,36.8202046],[101.9464845,36.8201274],[101.9465067,36.8200514],[101.9465369,36.8199772],[101.946575,36.8199053],[101.9466236,36.8198324],[101.9466803,36.8197633],[101.9467446,36.8196987],[101.946816,36.8196389],[101.9468939,36.8195846],[101.9469776,36.8195363],[101.9470665,36.8194942],[101.9471598,36.8194587],[101.9497132,36.8184023]]}},{"type":"Feature","id":"way/909948523","properties":{"highway":"tertiary","osm_id":"way/909948523","source":"OpenStreetMap"},"geometry":{"type":"LineString","coordinates":[[101.9553029,36.8371752],[101.9557653,36.83775],[101.9558072,36.8378021],[101.9579632,36.8405128],[101.9580172,36.8405845],[101.9636459,36.8433961],[101.9650781,36.8442055],[101.9654423,36.8444185],[101.9656227,36.844524],[101.9662512,36.8448915],[101.9669727,36.8453668]]}},{"type":"Feature","id":"way/909948524","properties":{"highway":"unclassified","osm_id":"way/909948524","source":"OpenStreetMap"},"geometry":{"type":"LineString","coordinates":[[101.9480437,36.8454026],[101.9483236,36.8458351],[101.9486976,36.8466094],[101.9487301,36.847644],[101.9487545,36.8486395],[101.9487594,36.8511751],[101.948604,36.851642]]}},{"type":"Feature","id":"way/909948525","properties":{"highway":"secondary","osm_id":"way/909948525","source":"OpenStreetMap"},"geometry":{"type":"LineString","coordinates":[[101.944481,36.8457742],[101.9447969,36.8457493],[101.945162,36.8457122],[101.9455254,36.8456665],[101.9458871,36.8456124],[101.9462466,36.8455498],[101.9466037,36.8454789],[101.946958,36.8453996],[101.9473093,36.8453121],[101.9476572,36.8452164],[101.9479462,36.8451292]]}},{"type":"Feature","id":"way/909948526","properties":{"highway":"secondary","osm_id":"way/909948526","source":"OpenStreetMap"},"geometry":{"type":"LineString","coordinates":[[101.9483418,36.8450008],[101.948685,36.8448785],[101.9490235,36.844748],[101.9493547,36.8446104],[101.9508651,36.8439014]]}},{"type":"Feature","id":"way/909948527","properties":{"highway":"secondary","osm_id":"way/909948527","source":"OpenStreetMap"},"geometry":{"type":"LineString","coordinates":[[101.9479462,36.8451292],[101.9480015,36.8451126],[101.9483418,36.8450008]]}},{"type":"Feature","id":"way/909948528","properties":{"highway":"secondary","osm_id":"way/909948528","source":"OpenStreetMap"},"geometry":{"type":"LineString","coordinates":[[101.9440336,36.8458095],[101.944481,36.8457742]]}},{"type":"Feature","id":"way/909948529","properties":{"highway":"secondary","osm_id":"way/909948529","source":"OpenStreetMap"},"geometry":{"type":"LineString","coordinates":[[101.9355886,36.8464767],[101.9413466,36.8460211],[101.9440336,36.8458095]]}},{"type":"Feature","id":"way/909948530","properties":{"highway":"secondary","osm_id":"way/909948530","source":"OpenStreetMap"},"geometry":{"type":"LineString","coordinates":[[101.9483882,36.8450875],[101.9480447,36.8452004],[101.9479878,36.8452175]]}},{"type":"Feature","id":"way/909948531","properties":{"highway":"secondary","osm_id":"way/909948531","source":"OpenStreetMap"},"geometry":{"type":"LineString","coordinates":[[101.9509028,36.8439596],[101.9494128,36.8446926],[101.9490762,36.8448324],[101.9487346,36.844964],[101.9483882,36.8450875]]}},{"type":"Feature","id":"way/909948532","properties":{"highway":"secondary","osm_id":"way/909948532","source":"OpenStreetMap"},"geometry":{"type":"LineString","coordinates":[[101.9440452,36.8459033],[101.941369,36.8461141],[101.9355726,36.8465493]]}},{"type":"Feature","id":"way/909948533","properties":{"highway":"secondary","osm_id":"way/909948533","source":"OpenStreetMap"},"geometry":{"type":"LineString","coordinates":[[101.9444925,36.8458681],[101.9440452,36.8459033]]}},{"type":"Feature","id":"way/909948534","properties":{"highway":"secondary","osm_id":"way/909948534","source":"OpenStreetMap"},"geometry":{"type":"LineString","coordinates":[[101.9479878,36.8452175],[101.9476971,36.8453051],[101.947346,36.8454017],[101.9469914,36.8454901],[101.9466337,36.8455701],[101.9462733,36.8456417],[101.9459104,36.8457049],[101.9455454,36.8457595],[101.9451785,36.8458056],[101.9448101,36.8458431],[101.9444925,36.8458681]]}},{"type":"Feature","id":"way/909948535","properties":{"highway":"tertiary","osm_id":"way/909948535","source":"OpenStreetMap"},"geometry":{"type":"LineString","coordinates":[[101.9766319,36.8246547],[101.9738489,36.826358],[101.973145,36.8267889],[101.9711324,36.8280186],[101.9706291,36.8283261],[101.9688664,36.8294048],[101.9681454,36.8298461],[101.9679047,36.8299719],[101.9676597,36.8300921],[101.9674104,36.8302068],[101.9671274,36.8303281],[101.9668396,36.8304421],[101.9665475,36.8305488],[101.9628419,36.832052],[101.9624193,36.8322234],[101.9618529,36.832435],[101.9617531,36.8324943]]}},{"type":"Feature","id":"way/909948537","properties":{"highway":"secondary","osm_id":"way/909948537","source":"OpenStreetMap"},"geometry":{"type":"LineString","coordinates":[[101.9517075,36.8372654],[101.951753,36.8372512],[101.9518013,36.8372455],[101.9518499,36.8372486],[101.9518966,36.8372602],[101.9519388,36.8372799],[101.9519745,36.8373066],[101.9520018,36.8373389],[101.9520195,36.8373753],[101.9520266,36.837414],[101.9520228,36.837453],[101.9520083,36.8374903],[101.9519837,36.8375241],[101.9519504,36.8375526],[101.95191,36.8375745],[101.9518644,36.8375887],[101.9518161,36.8375944],[101.9517675,36.8375913],[101.9517208,36.8375797],[101.9516786,36.83756],[101.951643,36.8375334],[101.9516156,36.837501],[101.9515979,36.8374646],[101.9515908,36.8374259],[101.9515946,36.8373869],[101.9516091,36.8373496],[101.9516337,36.8373159],[101.951667,36.8372873],[101.9517075,36.8372654]]}},{"type":"Feature","id":"way/909948538","properties":{"highway":"tertiary","name":"北大街","osm_id":"way/909948538","source":"OpenStreetMap"},"geometry":{"type":"LineString","coordinates":[[101.9519504,36.8375526],[101.9520745,36.8377083],[101.9529469,36.8389174],[101.9530237,36.839025],[101.9550287,36.8418357],[101.9550978,36.8419512]]}},{"type":"Feature","id":"way/909948539","properties":{"highway":"secondary","osm_id":"way/909948539","source":"OpenStreetMap"},"geometry":{"type":"LineString","coordinates":[[101.9475389,36.83899],[101.9500351,36.8380033],[101.951396,36.8374977],[101.9515908,36.8374259]]}},{"type":"Feature","id":"way/909948541","properties":{"highway":"primary","osm_id":"way/909948541","source":"OpenStreetMap"},"geometry":{"type":"LineString","coordinates":[[101.9402425,36.8263173],[101.9363576,36.827573]]}},{"type":"Feature","id":"way/909948542","properties":{"highway":"primary","osm_id":"way/909948542","source":"OpenStreetMap"},"geometry":{"type":"LineString","coordinates":[[101.9410427,36.8260456],[101.9402425,36.8263173]]}},{"type":"Feature","id":"way/909948543","properties":{"highway":"secondary","osm_id":"way/909948543","source":"OpenStreetMap"},"geometry":{"type":"LineString","coordinates":[[101.9508651,36.8439014],[101.9509028,36.8439596]]}},{"type":"Feature","id":"way/909948544","properties":{"highway":"primary","name":"西宁绕城环线","osm_id":"way/909948544","source":"OpenStreetMap"},"geometry":{"type":"LineString","coordinates":[[101.9366922,36.8532165],[101.9368394,36.8536671],[101.9368666,36.8537503],[101.9369884,36.8543338],[101.9370999,36.8554688],[101.9373115,36.8568284]]}},{"type":"Feature","id":"way/910050148","properties":{"highway":"trunk","osm_id":"way/910050148","source":"OpenStreetMap"},"geometry":{"type":"LineString","coordinates":[[101.9710987,36.840537],[101.9656227,36.844524],[101.965552,36.8445755],[101.9634325,36.8461186],[101.9631081,36.8462899]]}},{"type":"Feature","id":"way/910050149","properties":{"highway":"trunk","osm_id":"way/910050149","source":"OpenStreetMap"},"geometry":{"type":"LineString","coordinates":[[101.9631081,36.8462899],[101.9632852,36.845989],[101.9653685,36.8444723],[101.9654423,36.8444185],[101.970888,36.8404536],[101.9709645,36.8403924]]}},{"type":"Feature","id":"way/910050150","properties":{"highway":"primary","name":"威北公路","osm_id":"way/910050150","source":"OpenStreetMap"},"geometry":{"type":"LineString","coordinates":[[101.9653253,36.8355568],[101.9653782,36.8356498],[101.9669555,36.8370247],[101.9694803,36.8391649],[101.9709645,36.8403924]]}},{"type":"Feature","id":"way/910087372","properties":{"highway":"unclassified","osm_id":"way/910087372","source":"OpenStreetMap"},"geometry":{"type":"LineString","coordinates":[[101.9684659,36.817514],[101.9736177,36.8139089]]}},{"type":"Feature","id":"way/910087374","properties":{"highway":"tertiary","osm_id":"way/910087374","source":"OpenStreetMap"},"geometry":{"type":"LineString","coordinates":[[101.9654256,36.8150053],[101.968317,36.8135538],[101.9684775,36.8134626],[101.9686331,36.8133662],[101.9687836,36.8132647],[101.9689287,36.8131582],[101.969068,36.813047],[101.9692183,36.8129159],[101.9693608,36.8127793],[101.969495,36.8126375],[101.9695399,36.8125852],[101.9696208,36.8124908],[101.9697377,36.8123395],[101.9697583,36.8123098]]}},{"type":"Feature","id":"way/910087390","properties":{"highway":"tertiary","osm_id":"way/910087390","source":"OpenStreetMap"},"geometry":{"type":"LineString","coordinates":[[101.9839543,36.8275704],[101.9815893,36.8265673],[101.9814691,36.8264912],[101.9765246,36.8228555],[101.9719127,36.8194732],[101.9718162,36.8194076],[101.9711065,36.8189649],[101.9700873,36.8184324],[101.9697619,36.8182663],[101.9694415,36.8180941],[101.9691261,36.8179162],[101.9688159,36.8177324],[101.9684659,36.817514],[101.9681234,36.8172883],[101.9677884,36.8170554],[101.9674613,36.8168154],[101.9671422,36.8165686],[101.9662142,36.8158084],[101.9654256,36.8150053],[101.9644493,36.8139875],[101.9643101,36.8138602],[101.9641647,36.8137376],[101.9640132,36.8136197],[101.9638558,36.8135068],[101.9636929,36.8133991],[101.9635121,36.8132895],[101.9633255,36.8131863],[101.9632649,36.8131558]]}},{"type":"Feature","id":"way/1082164687","properties":{"highway":"primary","osm_id":"way/1082164687","source":"OpenStreetMap"},"geometry":{"type":"LineString","coordinates":[[101.9640923,36.8156603],[101.9608463,36.8172881],[101.9581096,36.8186605],[101.9570485,36.8191926],[101.9536666,36.8208947],[101.9525437,36.8214903]]}},{"type":"Feature","id":"way/1082164715","properties":{"highway":"residential","osm_id":"way/1082164715","source":"OpenStreetMap"},"geometry":{"type":"LineString","coordinates":[[101.9477177,36.8134808],[101.9473743,36.8150483],[101.9474119,36.8151685],[101.9485545,36.8163581],[101.9494665,36.8171784],[101.9499063,36.8178097],[101.9500983,36.8182033]]}},{"type":"Feature","id":"way/1082164724","properties":{"highway":"residential","osm_id":"way/1082164724","source":"OpenStreetMap"},"geometry":{"type":"LineString","coordinates":[[101.9298756,36.8220353],[101.9297469,36.8220611],[101.9295216,36.8221083],[101.9294411,36.8221298],[101.9293284,36.8221298],[101.9291246,36.8221169],[101.9288805,36.8221706],[101.9286284,36.8222801],[101.9284594,36.8223423],[101.9283682,36.822381],[101.9283501,36.8223953],[101.9283415,36.8224144],[101.9283441,36.8224347],[101.9283543,36.8224493],[101.9283704,36.82246],[101.9283902,36.8224654],[101.9284111,36.8224647],[101.9286606,36.8223788],[101.9287786,36.8223295],[101.9289127,36.8223144],[101.9290495,36.8223617],[101.929079,36.8224454],[101.9290441,36.8226301],[101.9290253,36.8227567],[101.9290119,36.822892],[101.9289502,36.8232098],[101.9289502,36.8234824],[101.9291675,36.8237938],[101.9293526,36.8238861],[101.9294974,36.8239634],[101.9295377,36.8241072],[101.9295511,36.8242769]]}},{"type":"Feature","id":"way/1082164725","properties":{"highway":"residential","osm_id":"way/1082164725","source":"OpenStreetMap"},"geometry":{"type":"LineString","coordinates":[[101.9294733,36.821739],[101.9293284,36.8221298],[101.9293284,36.8222071],[101.9295752,36.8229113],[101.9297147,36.8231174],[101.9300312,36.8232763],[101.9301063,36.8233365],[101.9302082,36.8235254],[101.9303316,36.8239033],[101.9303799,36.8240536],[101.930353,36.824367]]}},{"type":"Feature","id":"way/1082164726","properties":{"highway":"residential","osm_id":"way/1082164726","source":"OpenStreetMap"},"geometry":{"type":"LineString","coordinates":[[101.9298756,36.8220353],[101.929661,36.8218678],[101.9294733,36.821739],[101.9297576,36.821009],[101.9290656,36.8203949]]}},{"type":"Feature","id":"way/1082164727","properties":{"highway":"residential","osm_id":"way/1082164727","source":"OpenStreetMap"},"geometry":{"type":"LineString","coordinates":[[101.9319999,36.822542],[101.9312167,36.8225678],[101.930868,36.8224991],[101.9306588,36.8223488],[101.930176,36.8221556],[101.9298756,36.8220353]]}},{"type":"Feature","id":"way/1082164728","properties":{"highway":"residential","osm_id":"way/1082164728","source":"OpenStreetMap"},"geometry":{"type":"LineString","coordinates":[[101.9319999,36.822542],[101.9321448,36.8225163],[101.9322252,36.8223016],[101.932354,36.8222371],[101.9339592,36.821796]]}},{"type":"Feature","id":"way/1082164729","properties":{"highway":"residential","osm_id":"way/1082164729","source":"OpenStreetMap"},"geometry":{"type":"LineString","coordinates":[[101.9322413,36.8250154],[101.932075,36.8235597],[101.9319785,36.8226923],[101.9319999,36.822542]]}},{"type":"Feature","id":"way/1082164730","properties":{"highway":"residential","osm_id":"way/1082164730","source":"OpenStreetMap"},"geometry":{"type":"LineString","coordinates":[[101.9322413,36.8250154],[101.9338989,36.8245259],[101.9348928,36.8241385]]}},{"type":"Feature","id":"way/1082164731","properties":{"highway":"residential","osm_id":"way/1082164731","source":"OpenStreetMap"},"geometry":{"type":"LineString","coordinates":[[101.93259,36.8295498],[101.9326758,36.8291806],[101.9326919,36.8282574],[101.9326329,36.8280255],[101.9324934,36.8270809],[101.9324773,36.8266858],[101.932472,36.8259172],[101.932354,36.8255264],[101.9322413,36.8250154]]}},{"type":"Feature","id":"way/1082164732","properties":{"highway":"residential","osm_id":"way/1082164732","source":"OpenStreetMap"},"geometry":{"type":"LineString","coordinates":[[101.93259,36.8295498],[101.9338721,36.8295584],[101.9341403,36.8296314],[101.935991,36.8296014],[101.9370103,36.8295885],[101.9373715,36.8295747]]}},{"type":"Feature","id":"way/1082164733","properties":{"highway":"residential","osm_id":"way/1082164733","source":"OpenStreetMap"},"geometry":{"type":"LineString","coordinates":[[101.9328636,36.8330449],[101.9325739,36.831087],[101.9325149,36.8299406],[101.93259,36.8295498]]}},{"type":"Feature","id":"way/1082164734","properties":{"highway":"residential","osm_id":"way/1082164734","source":"OpenStreetMap"},"geometry":{"type":"LineString","coordinates":[[101.9345373,36.8326456],[101.9344568,36.8313189],[101.9346338,36.8311772],[101.9344783,36.8299663],[101.9358247,36.8299234],[101.9358677,36.8301595]]}},{"type":"Feature","id":"way/1082164735","properties":{"highway":"residential","osm_id":"way/1082164735","source":"OpenStreetMap"},"geometry":{"type":"LineString","coordinates":[[101.9328636,36.8330449],[101.933105,36.8330191],[101.9339257,36.832607],[101.9345373,36.8326456],[101.9348645,36.8326714],[101.935358,36.8326799],[101.9374993,36.8326408]]}},{"type":"Feature","id":"way/1082164736","properties":{"highway":"residential","osm_id":"way/1082164736","source":"OpenStreetMap"},"geometry":{"type":"LineString","coordinates":[[101.9337594,36.8377291],[101.9335502,36.8363853],[101.9333249,36.8352518],[101.9330299,36.8343287],[101.9329601,36.8339208],[101.9328636,36.8330449]]}},{"type":"Feature","id":"way/1082164737","properties":{"highway":"residential","osm_id":"way/1082164737","source":"OpenStreetMap"},"geometry":{"type":"LineString","coordinates":[[101.9376254,36.8376678],[101.9375347,36.8376666],[101.9374175,36.8376678],[101.9365114,36.8376776],[101.9340813,36.8377677],[101.9337594,36.8377291]]}},{"type":"Feature","id":"way/1082164738","properties":{"highway":"residential","osm_id":"way/1082164738","source":"OpenStreetMap"},"geometry":{"type":"LineString","coordinates":[[101.9364363,36.8391815],[101.9364631,36.8381327],[101.9365114,36.8376776]]}},{"type":"Feature","id":"way/1082164739","properties":{"highway":"residential","osm_id":"way/1082164739","source":"OpenStreetMap"},"geometry":{"type":"LineString","coordinates":[[101.9372006,36.8391836],[101.9379398,36.8392075],[101.9388283,36.8391719]]}},{"type":"Feature","id":"way/1082164740","properties":{"highway":"residential","osm_id":"way/1082164740","source":"OpenStreetMap"},"geometry":{"type":"LineString","coordinates":[[101.9341081,36.8395022],[101.9359428,36.8391888],[101.9363344,36.8391802],[101.9364363,36.8391815],[101.9372006,36.8391836]]}},{"type":"Feature","id":"way/1082164741","properties":{"highway":"residential","osm_id":"way/1082164741","source":"OpenStreetMap"},"geometry":{"type":"LineString","coordinates":[[101.9348216,36.8425718],[101.9344139,36.843117],[101.9343013,36.8432802],[101.9342905,36.843439],[101.9344032,36.8438039],[101.9345266,36.8440572],[101.9345587,36.8442075],[101.9346178,36.8444951],[101.9346768,36.8446196],[101.9348001,36.8447698],[101.935063,36.8449287],[101.9352829,36.8451262],[101.9356692,36.8455082],[101.9357912,36.8455586]]}},{"type":"Feature","id":"way/1082164742","properties":{"highway":"residential","osm_id":"way/1082164742","source":"OpenStreetMap"},"geometry":{"type":"LineString","coordinates":[[101.9348216,36.8425718],[101.9350684,36.8424731],[101.935519,36.8423872],[101.9359857,36.84237],[101.9364791,36.8424414]]}},{"type":"Feature","id":"way/1082164743","properties":{"highway":"residential","osm_id":"way/1082164743","source":"OpenStreetMap"},"geometry":{"type":"LineString","coordinates":[[101.9337594,36.8377291],[101.9341081,36.8395022],[101.9341725,36.8408031],[101.9341779,36.8410606],[101.934092,36.8411766],[101.9339633,36.8412452],[101.9338882,36.8414299],[101.9338828,36.8425332],[101.9340223,36.8425761],[101.9348216,36.8425718]]}},{"type":"Feature","id":"way/1082164746","properties":{"highway":"pedestrian","osm_id":"way/1082164746","source":"OpenStreetMap"},"geometry":{"type":"LineString","coordinates":[[101.941613,36.8378021],[101.9376254,36.8376678]]}},{"type":"Feature","id":"way/1082645115","properties":{"highway":"secondary_link","osm_id":"way/1082645115","source":"OpenStreetMap"},"geometry":{"type":"LineString","coordinates":[[101.941369,36.8461141],[101.9413466,36.8460211]]}},{"type":"Feature","id":"way/1082645117","properties":{"highway":"unclassified","osm_id":"way/1082645117","source":"OpenStreetMap"},"geometry":{"type":"LineString","coordinates":[[101.9403308,36.8543719],[101.9404113,36.8541751],[101.9404167,36.8540206],[101.9403845,36.8538703],[101.9403201,36.8536944],[101.9403362,36.8534926],[101.9404328,36.8532136],[101.940465,36.8530247],[101.9404381,36.8528616],[101.9404456,36.8521673]]}},{"type":"Feature","id":"way/1082645129","properties":{"highway":"residential","osm_id":"way/1082645129","source":"OpenStreetMap"},"geometry":{"type":"LineString","coordinates":[[101.9403014,36.8555057],[101.9403148,36.8554135],[101.9401855,36.85438]]}},{"type":"Feature","id":"way/1082645130","properties":{"highway":"residential","osm_id":"way/1082645130","source":"OpenStreetMap"},"geometry":{"type":"LineString","coordinates":[[101.9406635,36.8543532],[101.9408271,36.8553984],[101.9407466,36.8555422],[101.9406071,36.8555873]]}},{"type":"Feature","id":"way/1082645131","properties":{"highway":"residential","osm_id":"way/1082645131","source":"OpenStreetMap"},"geometry":{"type":"LineString","coordinates":[[101.9395772,36.8543876],[101.9399366,36.854394],[101.9401855,36.85438],[101.9403308,36.8543719],[101.9406635,36.8543532]]}},{"type":"Feature","id":"way/1082645132","properties":{"highway":"residential","osm_id":"way/1082645132","source":"OpenStreetMap"},"geometry":{"type":"LineString","coordinates":[[101.9387815,36.8536104],[101.9388047,36.8541365]]}},{"type":"Feature","id":"way/1082645133","properties":{"highway":"residential","osm_id":"way/1082645133","source":"OpenStreetMap"},"geometry":{"type":"LineString","coordinates":[[101.9396281,36.8535291],[101.9390058,36.8535763],[101.9387815,36.8536104],[101.9385686,36.8536428],[101.9375119,36.8537008],[101.9368666,36.8537503]]}},{"type":"Feature","id":"way/1082645134","properties":{"highway":"residential","osm_id":"way/1082645134","source":"OpenStreetMap"},"geometry":{"type":"LineString","coordinates":[[101.9393545,36.8554285],[101.9395772,36.8543876],[101.939604,36.8542888],[101.9396389,36.8540013],[101.9396281,36.8535291]]}},{"type":"Feature","id":"way/1082645155","properties":{"landuse":"forest","osm_id":"way/1082645155","source":"OpenStreetMap"},"geometry":{"type":"Polygon","coordinates":[[[101.9233364,36.8568793],[101.9235027,36.8568879],[101.924082,36.8568192],[101.9248277,36.8569265],[101.9249618,36.8568707],[101.9249618,36.856669],[101.9251603,36.8563385],[101.9253963,36.8562612],[101.9256806,36.8562998],[101.9266891,36.8565831],[101.9269735,36.8565917],[101.9276333,36.8568235],[101.928792,36.8571669],[101.9292372,36.8571969],[101.9297308,36.8570123],[101.9301599,36.8567162],[101.930396,36.8566089],[101.9307178,36.8564973],[101.9309968,36.8564629],[101.9311953,36.8562955],[101.931265,36.8561968],[101.9312704,36.8560895],[101.9309431,36.8556173],[101.9307876,36.8552782],[101.9307178,36.8549005],[101.9307607,36.8545614],[101.9307017,36.8544498],[101.9305086,36.8543039],[101.9300634,36.8541322],[101.9294625,36.8541708],[101.929366,36.8542524],[101.9293392,36.8543726],[101.9294196,36.8545872],[101.9297844,36.8549864],[101.9299185,36.8552096],[101.9299239,36.8554456],[101.9298971,36.8555572],[101.9296825,36.8557461],[101.9292855,36.8559393],[101.929146,36.8559479],[101.9276816,36.8558405],[101.9263405,36.8559049],[101.9253051,36.8557461],[101.9250315,36.8556817],[101.9247365,36.8554628],[101.9241893,36.8554242],[101.9238353,36.8552482],[101.9235778,36.8551924],[101.923213,36.8549692],[101.9228053,36.8548061],[101.9224727,36.8547546],[101.9218129,36.8547245],[101.9218129,36.8548533],[101.9225478,36.8551023],[101.9227892,36.8552139],[101.9228643,36.8553083],[101.9227624,36.8554027],[101.9226175,36.8554542],[101.9222957,36.85548],[101.922006,36.8555658],[101.9219041,36.855656],[101.9218236,36.855862],[101.9210511,36.8559951],[101.9207132,36.8561925],[101.9206381,36.8562698],[101.9206595,36.8563814],[101.9207507,36.8564543],[101.9211477,36.8565359],[101.9212925,36.8567162],[101.9213194,36.8568192],[101.9225746,36.8569308],[101.9227409,36.8567033],[101.9229501,36.8566046],[101.9230735,36.856626],[101.9233364,36.8568793]]]}},{"type":"Feature","id":"way/1082652535","properties":{"landuse":"forest","osm_id":"way/1082652535","source":"OpenStreetMap"},"geometry":{"type":"Polygon","coordinates":[[[101.9360125,36.8106763],[101.9361949,36.8128666],[101.9365168,36.8141121],[101.9364953,36.8145931],[101.9363236,36.8146102],[101.9362163,36.8140348],[101.9357443,36.8135795],[101.9356155,36.8133047],[101.9354868,36.8129611],[101.9354331,36.8125746],[101.935004,36.8124801],[101.9349718,36.8122224],[101.9350791,36.8117843],[101.9351756,36.8115095],[101.9355082,36.8111745],[101.9357335,36.8109683],[101.9358516,36.8107707],[101.9360125,36.8106763]]]}},{"type":"Feature","id":"way/1082652548","properties":{"highway":"residential","osm_id":"way/1082652548","source":"OpenStreetMap"},"geometry":{"type":"LineString","coordinates":[[101.9347626,36.8155551],[101.9347304,36.8151041],[101.9346017,36.814679],[101.9342744,36.8139403],[101.9340116,36.8133863],[101.9337916,36.8129525],[101.9337058,36.8126476],[101.933687,36.8124715]]}},{"type":"Feature","id":"way/1082652549","properties":{"highway":"residential","osm_id":"way/1082652549","source":"OpenStreetMap"},"geometry":{"type":"LineString","coordinates":[[101.9308251,36.8117951],[101.9309056,36.8122997],[101.9311416,36.8136869],[101.9315064,36.8146618],[101.9316459,36.8151213],[101.9319195,36.8156753],[101.9322252,36.8161992],[101.9336146,36.8158342],[101.9342047,36.8156968],[101.9347626,36.8155551]]}},{"type":"Feature","id":"way/1082652553","properties":{"landuse":"forest","osm_id":"way/1082652553","source":"OpenStreetMap"},"geometry":{"type":"Polygon","coordinates":[[[101.9252193,36.8242039],[101.9251442,36.824294],[101.9250208,36.8243627],[101.9247633,36.8244315],[101.9246238,36.8244014],[101.9242698,36.8241953],[101.9240177,36.8241008],[101.9233149,36.8242468],[101.9231862,36.8242082],[101.9230843,36.8241352],[101.9230843,36.8240192],[101.9231862,36.8239419],[101.9239211,36.8238904],[101.9241464,36.8238002],[101.9242752,36.8237916],[101.9244093,36.8238131],[101.9245166,36.8238775],[101.9245863,36.8239806],[101.9246882,36.8240493],[101.9248384,36.8240922],[101.9252568,36.8241008],[101.9252193,36.8242039]]]}},{"type":"Feature","id":"way/1082652554","properties":{"landuse":"forest","osm_id":"way/1082652554","source":"OpenStreetMap"},"geometry":{"type":"Polygon","coordinates":[[[101.9245005,36.8247707],[101.9238031,36.8251572],[101.9230091,36.8252946],[101.9224512,36.8251572],[101.9204342,36.8241266],[101.9196617,36.8238432],[101.9189215,36.8241008],[101.9186425,36.8241008],[101.9184279,36.8239806],[101.9187069,36.8235855],[101.9187498,36.8233708],[101.9185352,36.8225206],[101.9187498,36.8224003],[101.919018,36.8224948],[101.9193506,36.8228555],[101.9195759,36.8232592],[101.9212818,36.8241008],[101.9221294,36.8246934],[101.9235134,36.8247277],[101.9240284,36.8245474],[101.9242859,36.8245388],[101.9245005,36.824659],[101.9245005,36.8247707]]]}},{"type":"Feature","id":"way/1082652555","properties":{"landuse":"forest","osm_id":"way/1082652555","source":"OpenStreetMap"},"geometry":{"type":"Polygon","coordinates":[[[101.9198871,36.8301123],[101.9187283,36.8300093],[101.9171297,36.8293824],[101.9174731,36.8290389],[101.9172156,36.828369],[101.9172156,36.8281629],[101.9174838,36.8281715],[101.9178164,36.8284978],[101.9181061,36.828558],[101.9189107,36.8285064],[101.9192755,36.8288242],[101.919769,36.8290389],[101.9202948,36.8289873],[101.9205522,36.8290217],[101.9207775,36.8291505],[101.9212711,36.8292192],[101.9210887,36.8296228],[101.9207132,36.8299492],[101.9202196,36.8301467],[101.9198871,36.8301123]]]}},{"type":"Feature","id":"way/1082652556","properties":{"landuse":"forest","osm_id":"way/1082652556","source":"OpenStreetMap"},"geometry":{"type":"Polygon","coordinates":[[[101.9174409,36.8501444],[101.9177306,36.8500672],[101.9192219,36.8499555],[101.9202518,36.8496035],[101.9217002,36.8496035],[101.9219255,36.8495091],[101.9220757,36.8493374],[101.9218182,36.8492086],[101.9206595,36.8489081],[101.9200694,36.8481698],[101.9196725,36.847895],[101.9194043,36.8478607],[101.919136,36.8479466],[101.9186854,36.848247],[101.9183743,36.8483672],[101.9174087,36.8485647],[101.9169152,36.8488051],[101.9166362,36.848848],[101.9164646,36.8490112],[101.9167757,36.8494233],[101.9171941,36.849698],[101.9174409,36.8501444]]]}},{"type":"Feature","id":"way/1109636110","properties":{"highway":"primary","name":"彩虹大道","osm_id":"way/1109636110","source":"OpenStreetMap"},"geometry":{"type":"LineString","coordinates":[[101.9366922,36.8532165],[101.9362932,36.852112],[101.9354579,36.8497994],[101.9352629,36.8492577],[101.9351898,36.8489714],[101.935145,36.8487242],[101.9351491,36.8485225],[101.9351816,36.8483208],[101.9355726,36.8465493],[101.9355886,36.8464767],[101.9357912,36.8455586],[101.93642,36.8427092],[101.9364791,36.8424414],[101.93654,36.8421655],[101.9372006,36.8391836],[101.9373641,36.8384451],[101.9375101,36.8377864],[101.9375347,36.8376666],[101.9375864,36.8374153],[101.9376235,36.8371015],[101.9376303,36.8367607],[101.9375499,36.834234],[101.937546,36.8341099],[101.9374993,36.8326408],[101.9374101,36.829838],[101.9373715,36.8295747],[101.9373097,36.8293296],[101.9372116,36.8290698],[101.9370832,36.8288343],[101.9363576,36.827573]]}},{"type":"Feature","id":"way/1214254853","properties":{"highway":"residential","osm_id":"way/1214254853","source":"OpenStreetMap"},"geometry":{"type":"LineString","coordinates":[[101.9546718,36.8526668],[101.9549457,36.8526732],[101.9552112,36.8527005],[101.955564,36.8527126],[101.9559547,36.8527369],[101.9561482,36.8528128]]}},{"type":"Feature","id":"way/1214254862","properties":{"highway":"unclassified","osm_id":"way/1214254862","source":"OpenStreetMap"},"geometry":{"type":"LineString","coordinates":[[101.9570221,36.8499424],[101.9573582,36.850676],[101.9578725,36.8512648],[101.9579583,36.8515395],[101.9581032,36.8517498],[101.9582534,36.8519559],[101.9582748,36.8522735],[101.9583017,36.8526212],[101.9583231,36.8529346],[101.9584582,36.8535443],[101.9584924,36.8540633],[101.9585113,36.8544124],[101.9584519,36.8552525],[101.9585428,36.8557725],[101.9585967,36.8560809],[101.9586825,36.8563728],[101.9587684,36.8566818],[101.9587845,36.8569136],[101.9588381,36.8572012],[101.9587308,36.8579652],[101.958999,36.858476],[101.9590795,36.8587378],[101.9590956,36.8591026],[101.9591278,36.8594589],[101.9591814,36.8597722],[101.9591761,36.860034],[101.9591385,36.8603817],[101.9591854,36.8606049]]}},{"type":"Feature","id":"way/1214254897","properties":{"highway":"residential","osm_id":"way/1214254897","source":"OpenStreetMap"},"geometry":{"type":"LineString","coordinates":[[101.9526992,36.8479807],[101.9538912,36.846909],[101.9541947,36.8467451],[101.9543767,36.8465964],[101.9545436,36.8464628],[101.954684,36.8463839],[101.9549761,36.8462928],[101.9551847,36.8462351],[101.9553781,36.8461501],[101.9555981,36.8460105],[101.9558219,36.8458466],[101.956152,36.84554]]}},{"type":"Feature","id":"way/1214254922","properties":{"highway":"secondary","name":"西大街","osm_id":"way/1214254922","source":"OpenStreetMap"},"geometry":{"type":"LineString","coordinates":[[101.9427733,36.8404553],[101.942032,36.840582],[101.9416491,36.8406137]]}},{"type":"Feature","id":"way/1214254923","properties":{"highway":"secondary","name":"西大街","osm_id":"way/1214254923","source":"OpenStreetMap"},"geometry":{"type":"LineString","coordinates":[[101.943666,36.8402725],[101.9427733,36.8404553]]}},{"type":"Feature","id":"way/1214254924","properties":{"highway":"secondary","name":"西大街","osm_id":"way/1214254924","source":"OpenStreetMap"},"geometry":{"type":"LineString","coordinates":[[101.9435899,36.8401058],[101.943612,36.8401002],[101.9468377,36.8392836]]}},{"type":"Feature","id":"way/1214254925","properties":{"highway":"secondary","name":"西大街","osm_id":"way/1214254925","source":"OpenStreetMap"},"geometry":{"type":"LineString","coordinates":[[101.9427291,36.840325],[101.9428833,36.840286],[101.9435899,36.8401058]]}},{"type":"Feature","id":"way/1214254933","properties":{"highway":"secondary","name":"西大街","osm_id":"way/1214254933","source":"OpenStreetMap"},"geometry":{"type":"LineString","coordinates":[[101.9475849,36.8391143],[101.9468681,36.8393867]]}},{"type":"Feature","id":"way/1214254934","properties":{"highway":"secondary","name":"西大街","osm_id":"way/1214254934","source":"OpenStreetMap"},"geometry":{"type":"LineString","coordinates":[[101.9516786,36.83756],[101.9514626,36.8376049],[101.9499687,36.8381562],[101.9475849,36.8391143]]}},{"type":"Feature","id":"way/1390386687","properties":{"highway":"unclassified","osm_id":"way/1390386687","source":"OpenStreetMap"},"geometry":{"type":"LineString","coordinates":[[101.9552909,36.8128488],[101.9553553,36.8129175],[101.9571161,36.8145158],[101.9587456,36.8159753]]}},{"type":"Feature","id":"way/1390386688","properties":{"highway":"unclassified","osm_id":"way/1390386688","source":"OpenStreetMap"},"geometry":{"type":"LineString","coordinates":[[101.9571688,36.8183605],[101.9574045,36.8174354],[101.9575762,36.817152],[101.9577479,36.8168342],[101.9584345,36.8164992],[101.9587456,36.8159753],[101.9594108,36.8149532],[101.960312,36.8149446],[101.9609665,36.8147556],[101.9614493,36.8146182],[101.961621,36.8143691],[101.9616375,36.8142475],[101.9616853,36.8138967],[101.961621,36.8136133],[101.9615351,36.8133384],[101.9613206,36.8131924],[101.9613098,36.8130378],[101.9613544,36.8128979]]}},{"type":"Feature","id":"way/1390386692","properties":{"landuse":"industrial","osm_id":"way/1390386692","source":"OpenStreetMap"},"geometry":{"type":"Polygon","coordinates":[[[101.9549691,36.8157434],[101.9571792,36.8181569],[101.9589709,36.817195],[101.9583058,36.8165765],[101.9586062,36.8159667],[101.9571041,36.814644],[101.9549691,36.8157434]]]}}]}